{"type":"FeatureCollection","metadata":{"name":"Карта микротопонимов к окрестностям аргуновских деревень","creator":"Yandex Map Constructor","description":"Составитель Н.В. Большакова, Илья Орлов (Лачуги)"},"features":[{"type":"Feature","id":0,"geometry":{"type":"Polygon","coordinates":[[[38.97156558503947,55.96717887765],[38.972735028169964,55.96748575662161],[38.97108278741679,55.96936308068862],[38.96985970010601,55.96902613182228],[38.97156558503947,55.96717887765]]]},"properties":{"description":"Зубовка","fill":"#56db40","fill-opacity":0.6,"stroke":"#56db40","stroke-width":"5","stroke-opacity":0.9}},{"type":"Feature","id":1,"geometry":{"type":"Polygon","coordinates":[[[38.98487159068551,55.96876677051317],[38.98401328380042,55.96924812836805],[38.978589857172906,55.96763419161671],[38.9738155251259,55.9660289332942],[38.971321070742256,55.96948278812563],[38.96952935511991,55.969127789466405],[38.97245832736426,55.96567390278659],[38.96545239741728,55.964368084484136],[38.965709889483236,55.963802416762356],[38.967276299547805,55.963567722396505],[38.97392281348656,55.965162412421606],[38.979314053606444,55.96648023853839],[38.98487159068551,55.96876677051317]]]},"properties":{"description":"Лачуги. Историческое название деревни, которое существовало не менее 300 лет.","fill":"#56db40","fill-opacity":0.6,"stroke":"#56db40","stroke-width":"5","stroke-opacity":0.9}},{"type":"Feature","id":2,"geometry":{"type":"LineString","coordinates":[[38.9713983548067,55.96498583507895],[38.976365805902276,55.96617429300771]]},"properties":{"description":"Серёдка. Срединная часть старого порядка деревни. Концы указаны приблизительно.","stroke":"#56db40","stroke-width":"5","stroke-opacity":0.9}},{"type":"Feature","id":3,"geometry":{"type":"Point","coordinates":[38.99502490697159,56.045226658849344]},"properties":{"description":"болото от речки Молодыни в сторону Вороново (возможно, название связано с болотной растительностью – шуварой. Это слово есть в словаре В. Даля. Т. 4. С. 1480)","iconCaption":"168 Шубара","marker-color":"#1e98ff"}},{"type":"Feature","id":4,"geometry":{"type":"Point","coordinates":[38.97936080632446,56.02677466919085]},"properties":{"description":"на которой расположена деревня Старое сельцо. Название деревни осталось от тех пор, когда здесь жили помещики Мячковы и были их дома, было сельцо","iconCaption":"182 Лысая гора (Горка)","marker-color":"#1e98ff"}},{"type":"Feature","id":5,"geometry":{"type":"Point","coordinates":[39.00791292128756,56.03775112665986]},"properties":{"description":"по владельцу","iconCaption":"11 Мухановская лесопилка","marker-color":"#1e98ff"}},{"type":"Feature","id":6,"geometry":{"type":"Point","coordinates":[38.95584639415162,55.98652487055246]},"properties":{"description":"за д. Родионово, там когда-то жили старообрядцы","iconCaption":"61 Тимонино","marker-color":"#1e98ff"}},{"type":"Feature","id":7,"geometry":{"type":"Point","coordinates":[38.953754271122186,55.985472366563585]},"properties":{"description":"часть д. Родионово","iconCaption":"121 Новая деревня","marker-color":"#1e98ff"}},{"type":"Feature","id":8,"geometry":{"type":"Point","coordinates":[38.948647345156,55.98756532046376]},"properties":{"description":"часть Родионово, место игры в футбол, гулянок и просмотра кино","iconCaption":"120 Золотая середина","marker-color":"#1e98ff"}},{"type":"Feature","id":9,"geometry":{"type":"Point","coordinates":[38.957123125644905,55.98868392315937]},"properties":{"description":"в д. Родионово (низинка к Крыночкам)","iconCaption":"119\tЧертов конец","marker-color":"#1e98ff"}},{"type":"Feature","id":10,"geometry":{"type":"Point","coordinates":[38.958582247349,55.98870196484895]},"properties":{"description":"ритуальное место по дороге на кладбище, где оставляли горшочки, из которых обмывали покойника. Это место для правобережных деревень","iconCaption":"122\tКрыночки","marker-color":"#1e98ff"}},{"type":"Feature","id":11,"geometry":{"type":"Point","coordinates":[38.96281477317363,55.990776703088045]},"properties":{"description":"речка","iconCaption":"69 Филимонова","marker-color":"#1e98ff"}},{"type":"Feature","id":12,"geometry":{"type":"Point","coordinates":[38.970067466349775,55.990734607862166]},"properties":{"iconCaption":"124\tФилимонов луг","marker-color":"#1e98ff"}},{"type":"Feature","id":13,"geometry":{"type":"Point","coordinates":[38.97036787375928,55.99400585510527]},"properties":{"description":"продолжение Старой реки","iconCaption":"14а\tВороновская река","marker-color":"#1e98ff"}},{"type":"Feature","id":14,"geometry":{"type":"Point","coordinates":[38.97802826270665,55.993410558253466]},"properties":{"iconCaption":"129\tКудринский луг","marker-color":"#1e98ff"}},{"type":"Feature","id":15,"geometry":{"type":"Point","coordinates":[38.98045297965572,55.99446284674451]},"properties":{"description":"Ганя","iconCaption":"25 Ганин ручей","marker-color":"#1e98ff"}},{"type":"Feature","id":16,"geometry":{"type":"Point","coordinates":[38.98372527465445,55.99437866520734]},"properties":{"description":"у Ганина ручья (это песчаный курган высотой 10 м, один из трех по Киржачу, где будто бы зарыты Золотые ворота г. Владимира. Второй курган был у ур. Быки, третий – у ур. Заплетень. Слово «вшивый» означает пренебрежение","iconCaption":"139 Вшивая горка","marker-color":"#1e98ff"}},{"type":"Feature","id":17,"geometry":{"type":"Point","coordinates":[38.97872563705041,55.99804642675442]},"properties":{"description":"ур., луг?","iconCaption":"26 Третной","marker-color":"#1e98ff"}},{"type":"Feature","id":18,"geometry":{"type":"Point","coordinates":[38.94832011565687,55.992009465611105]},"properties":{"description":"лес посреди Среднего поля; до войны здесь добывали торф<br/>","iconCaption":"117 Круглая лядка/Песочная горочка","marker-color":"#1e98ff"}},{"type":"Feature","id":19,"geometry":{"type":"Point","coordinates":[38.951753343195975,55.99262282537482]},"properties":{"description":"луг за старицей Киржача. Между старицей и мостом был плетень, изгородь, загон для лошадей в ночное время. Старицу во время мелиоративных работ уничтожили. В омутках водились караси, щуки, вьюны","iconCaption":"118 Заплетень","marker-color":"#1e98ff"}},{"type":"Feature","id":20,"geometry":{"type":"Point","coordinates":[38.933057684233006,55.99168626874403]},"properties":{"description":"Лес","iconCaption":"46 Подберезное","marker-color":"#1e98ff"}},{"type":"Feature","id":21,"geometry":{"type":"Point","coordinates":[38.93168439321942,55.98829454556162]},"properties":{"description":"Лес","iconCaption":"126 Ляда","marker-color":"#1e98ff"}},{"type":"Feature","id":22,"geometry":{"type":"Point","coordinates":[38.938722509674456,55.98498672495181]},"properties":{"description":"лес по низине","iconCaption":"45 Родионовская ляда","marker-color":"#1e98ff"}},{"type":"Feature","id":23,"geometry":{"type":"Point","coordinates":[38.958291906646814,55.98248462066033]},"properties":{"description":"поле и лес","iconCaption":"59 Раменье","marker-color":"#1e98ff"}},{"type":"Feature","id":24,"geometry":{"type":"Point","coordinates":[38.97914876394639,55.98639408673905]},"properties":{"description":"лес по холму вытянутой формы, напоминает лошадиную холку, отсюда и название","iconCaption":"62 Грива","marker-color":"#1e98ff"}},{"type":"Feature","id":25,"geometry":{"type":"Point","coordinates":[38.97243251257368,55.982496650663904]},"properties":{"description":"лес","iconCaption":"60 Завал","marker-color":"#1e98ff"}},{"type":"Feature","id":26,"geometry":{"type":"Point","coordinates":[38.98672332220501,55.982159816677175]},"properties":{"description":"сенокос","iconCaption":"138 Задняя","marker-color":"#1e98ff"}},{"type":"Feature","id":27,"geometry":{"type":"Point","coordinates":[38.990199465086874,55.978719128354925]},"properties":{"description":"болото, луг, лес, упирается в покос Бык","iconCaption":"27 Змеевник","marker-color":"#1e98ff"}},{"type":"Feature","id":28,"geometry":{"type":"Point","coordinates":[38.99846066885351,55.977973204886645]},"properties":{"description":"луг","iconCaption":"63 Лучка","marker-color":"#1e98ff"}},{"type":"Feature","id":29,"geometry":{"type":"Point","coordinates":[38.97642363958608,55.97981543559802]},"properties":{"description":"низинка, может быть, контуры болота напоминали быка","iconCaption":"137\tМокрый бык","marker-color":"#1e98ff"}},{"type":"Feature","id":30,"geometry":{"type":"Point","coordinates":[38.974628667737406,55.96696225721328]},"properties":{"description":"в д. Лачуги. Известен как строительный подрядчик, застроивший улицу в Москве в районе Таганки. Построил в Лачугах часовню, частично сохранившуюся, сейчас там магазин, и школу. Дом Баскакова не сохранился","iconCaption":"93 Усадьба Баскакова","marker-color":"#1e98ff"}},{"type":"Feature","id":31,"geometry":{"type":"Point","coordinates":[38.97278330793515,55.96862901122897]},"properties":{"description":"теперь часть д. Красный луч (Лачуги)","iconCaption":"28 Зубовка","marker-color":"#1e98ff"}},{"type":"Feature","id":32,"geometry":{"type":"Point","coordinates":[38.980829934977066,55.967768564561595]},"properties":{"description":"часть д. Лачуги. От нее в сторону с. Санино идет дорога через Курью гору. Здесь был постоялый двор, пользовавшийся дурной славой","iconCaption":"88 Куриная (Курья) гора","marker-color":"#1e98ff"}},{"type":"Feature","id":33,"geometry":{"type":"Point","coordinates":[39.003671626950485,55.97226312734304]},"properties":{"description":"речка","iconCaption":"29 Лачужка","marker-color":"#1e98ff"}},{"type":"Feature","id":34,"geometry":{"type":"Point","coordinates":[38.97006891241181,55.96474181217057]},"properties":{"description":"часть д. Лачуги к ж/д станции «168 км.»","iconCaption":"86 Матреновка","marker-color":"#1e98ff"}},{"type":"Feature","id":35,"geometry":{"type":"Point","coordinates":[38.992068390750916,55.992187511397475]},"properties":{"description":"через р. Киржач у церкви","iconCaption":"112 Старый исчезнувший деревянный мост","marker-color":"#1e98ff"}},{"type":"Feature","id":36,"geometry":{"type":"Point","coordinates":[38.995882491971116,55.99118627629057]},"properties":{"description":"через р. Киржач у бывшей церкви, «лавы»","iconCaption":"113\tНынешний висячий мост","marker-color":"#1e98ff"}},{"type":"Feature","id":37,"geometry":{"type":"Point","coordinates":[38.994047861004795,55.99513394267578]},"properties":{"description":"теперь бор, шел по р. Киржач от церкви к Еловицам","iconCaption":"8 Попов луг","marker-color":"#1e98ff"}},{"type":"Feature","id":38,"geometry":{"type":"Point","coordinates":[38.991798262371766,56.00364072535738]},"properties":{"description":"луг, по дороге из Барскова к Киржачу, на левом берегу","iconCaption":"9 Перерва","marker-color":"#1e98ff"}},{"type":"Feature","id":39,"geometry":{"type":"Point","coordinates":[39.023890342405544,56.0105810471627]},"properties":{"iconCaption":"10 Долгий луг","marker-color":"#1e98ff"}},{"type":"Feature","id":40,"geometry":{"type":"Point","coordinates":[39.02796730010817,56.00555595827354]},"properties":{"description":"болото со стороны Барсково, торфоразработки","iconCaption":"2 Загрязье","marker-color":"#1e98ff"}},{"type":"Feature","id":41,"geometry":{"type":"Point","coordinates":[39.006123389890895,56.01142250506618]},"properties":{"description":"давались в 1918 г. по едокам","iconCaption":"23 Барсковские отруба","marker-color":"#1e98ff"}},{"type":"Feature","id":42,"geometry":{"type":"Point","coordinates":[39.008397903135105,56.00166046153786]},"properties":{"description":"такое же ритуальное место, где оставляли горшочки, из которых обмывали покойника, по дороге к Аргуновской церкви жители левобережных деревень. Это место по левую сторону дороги от Цепнино к Аргуново, сразу после поворота дороги к церкви","iconCaption":"123 Кривая береза","marker-color":"#1e98ff"}},{"type":"Feature","id":43,"geometry":{"type":"Point","coordinates":[39.010307635953595,55.99581647689262]},"properties":{"description":"Барашево, лес по болоту, раньше пустошь – лес, пашня, сенокос (возможно, по названию болотной птицы из семейства куликов, бекасов, в народе «барашек, баранчик» из-за блеянья. В. Даль. Т. 1. С. 120)","iconCaption":"24 Бараши","marker-color":"#1e98ff"}},{"type":"Feature","id":44,"geometry":{"type":"Point","coordinates":[39.01916965453875,55.99465599206945]},"properties":{"description":"Протомойка, ручей от Цепнино в сторону Барскова, покос по болоту, трава хорошая. Покос Протомой означает мокрый, это объясняется словом «портомой» – мокрые порты","iconCaption":"143\tПротомоя","marker-color":"#1e98ff"}},{"type":"Feature","id":45,"geometry":{"type":"Point","coordinates":[39.0202425381436,56.00128171072748]},"properties":{"description":"от Цепнина в сторону Барскова","iconCaption":"142 Большой луг","marker-color":"#1e98ff"}},{"type":"Feature","id":46,"geometry":{"type":"Point","coordinates":[39.01824697463737,56.00518926900142]},"properties":{"description":"от Цепнина в сторону Барскова","iconCaption":"141Малый луг","marker-color":"#1e98ff"}},{"type":"Feature","id":47,"geometry":{"type":"Point","coordinates":[39.03288110702318,55.99423508215946]},"properties":{"description":"ур. за д. Цепнино по дороге в Панфилово","iconCaption":"162 Гора","marker-color":"#1e98ff"}},{"type":"Feature","id":48,"geometry":{"type":"Point","coordinates":[38.87803227000793,56.02494894221396]},"properties":{"iconCaption":"114 Александровская ж/д","marker-color":"#1e98ff"}},{"type":"Feature","id":49,"geometry":{"type":"Point","coordinates":[38.94023806148052,55.98812487811125]},"properties":{"description":"В сторону Санино","iconCaption":"115 Среднее поле","marker-color":"#1e98ff"}},{"type":"Feature","id":50,"geometry":{"type":"Point","coordinates":[38.94719034724625,55.98349382856302]},"properties":{"description":"В сторону Лачуг.<br/>Здесь в 1918 г довали отруба по количеству едоков","iconCaption":"116 Заднее поле","marker-color":"#1e98ff"}},{"type":"Feature","id":51,"geometry":{"type":"Point","coordinates":[39.00642425113245,55.99829894812822]},"properties":{"description":"Лес по болоту, раньше пустошь — лес, пашня, сенокос (возможно по названию болотной птицы из семейства куликов, бекасов, в народе \"барашек, баранчик\" из-за блеянья В. Даль","iconCaption":"Бараши, Барашово","marker-color":"#1e98ff"}},{"type":"Feature","id":52,"geometry":{"type":"Point","coordinates":[38.977198115228326,56.02403712708044]},"properties":{"iconCaption":"185 Два родника","marker-color":"#1e98ff"}},{"type":"Feature","id":53,"geometry":{"type":"Point","coordinates":[38.966699949144605,56.0185540932175]},"properties":{"description":"Лавы чуть ниже бывшей мельницы. А ниже лав р. Маленькая, которая заросла, но следы ее еще видны в половодье ниже учтья р. Молодыни. От лав идет дорога к с. Ильинскому, к церкви и кладбищу. Здесь же Ильинский омут","iconCaption":"183 Лавы через р. Молодынь","marker-color":"#1e98ff"}},{"type":"Feature","id":54,"geometry":{"type":"Point","coordinates":[38.96960746371611,56.0124632520292]},"properties":{"iconCaption":"179 Курманка, старица Киржача","marker-color":"#1e98ff"}},{"type":"Feature","id":55,"geometry":{"type":"Point","coordinates":[38.967643101129845,56.01953378233812]},"properties":{"description":"Бывшая мельница Курманка, располагалась в 300-400 м от устья р. Молодыни, притока р. Киржач. Здесь же Верхний и Нижний омут, выше и ниже плотины, отсюда и названия. Курман — старинное имя.","iconCaption":"52 Мельница Курманка","marker-color":"#1e98ff"}},{"type":"Feature","id":56,"geometry":{"type":"Point","coordinates":[38.96398555362218,56.02435557087325]},"properties":{"description":"Место отдыха и дойки коров в летний день","iconCaption":"189 Наполдни","marker-color":"#1e98ff"}},{"type":"Feature","id":57,"geometry":{"type":"Point","coordinates":[38.971324077486926,56.02437960417381]},"properties":{"description":"Расположена в 400 м за Садовой прудкой. Прудка, выложенная камнями, к которой вели две сохранившиеся липовые аллеи от исчезнувшего барсокого дома, ликвидирована в 1930-ые, когда камень увезли для хоз.нужд","iconCaption":"190 Конная порубка","marker-color":"#1e98ff"}},{"type":"Feature","id":58,"geometry":{"type":"Point","coordinates":[38.96523009860507,56.027768149169844]},"properties":{"description":"Луг у д. Старое Сельцо","iconCaption":"164 Сеча, луг","marker-color":"#1e98ff"}},{"type":"Feature","id":59,"geometry":{"type":"Point","coordinates":[38.971731773256344,56.034592396553435]},"properties":{"description":"В Старом Сельце речку зовут Ильинской, а в с. Ильинском — Старосельской. Часть реки от мельницы до устья раньше называли Маленькой речкой","iconCaption":"167 р. Молодынь (Молодань, Маловань, Моловань)","marker-color":"#1e98ff"}},{"type":"Feature","id":60,"geometry":{"type":"Point","coordinates":[38.983039966463494,56.036286256535014]},"properties":{"iconCaption":"165 Гладыши (Гладкий) луг","marker-color":"#1e98ff"}},{"type":"Feature","id":61,"geometry":{"type":"Point","coordinates":[38.981580844758355,56.02483623276952]},"properties":{"description":"Современная часовня восстановленная там же М.И и Е.А. Ефимовыми, и рядом с ней следы Каменицы","iconCaption":"186 Часовня","marker-color":"#1e98ff"}},{"type":"Feature","id":62,"geometry":{"type":"Point","coordinates":[38.98784648501866,56.03017119154111]},"properties":{"description":"Тетки Татьяны отруб, Коротков отруб (давали в 1918 г., хотя некоторые думают, что в Столыпинскую реформу). Это место называлось Синие камни, в сторону Гладышей","iconCaption":"177 Александров отруб","marker-color":"#1e98ff"}},{"type":"Feature","id":63,"geometry":{"type":"Point","coordinates":[38.98986350619786,56.03531319758904]},"properties":{"description":"Здесь жгли уголь для промышленности, был своего рода местный промысел в последнюю войну и после нее","iconCaption":"173 Новая угольница","marker-color":"#1e98ff"}},{"type":"Feature","id":64,"geometry":{"type":"Point","coordinates":[38.984971156953456,56.041103136935774]},"properties":{"description":"Омут на р. Молодынь","iconCaption":"191Чухомский (Чухонский) омут","marker-color":"#1e98ff"}},{"type":"Feature","id":65,"geometry":{"type":"Point","coordinates":[38.99296413981887,56.042598530396035]},"properties":{"iconCaption":"171 Горелая порубка, лес","marker-color":"#1e98ff"}},{"type":"Feature","id":66,"geometry":{"type":"Point","coordinates":[38.991505018114644,56.03839446713502]},"properties":{"description":"Существует предание, что старосельские мужики выкупили её у барина за 40 рулей","iconCaption":"172 Сорокарублевая порубка, лес","marker-color":"#1e98ff"}},{"type":"Feature","id":67,"geometry":{"type":"Point","coordinates":[38.967086187240604,56.01917604207384]},"properties":{"iconCaption":"192 Круглый омут на р. Молодыни","marker-color":"#1e98ff"}},{"type":"Feature","id":68,"geometry":{"type":"Point","coordinates":[38.948975911974124,56.023712674117725]},"properties":{"description":"Луг в междуречье Киржача и Молодыни. Принадлжеал Старому сельцу. Болонье — низменная луговая равнина у реки или озера; выгон, толока, поскотина (В. Даль. т. 1 с. 242)","iconCaption":"178 Заболонье","marker-color":"#1e98ff"}},{"type":"Feature","id":69,"geometry":{"type":"Point","coordinates":[38.938332906603186,56.01635765531496]},"properties":{"description":"ПУстошь, болото","iconCaption":"135 Каменка","marker-color":"#1e98ff"}},{"type":"Feature","id":70,"geometry":{"type":"Point","coordinates":[38.9141286524533,56.03649648238718]},"properties":{"iconCaption":"14 Старый Киржач, Старая река","marker-color":"#1e98ff"}},{"type":"Feature","id":71,"geometry":{"type":"Point","coordinates":[38.921120060208686,56.01060463347032]},"properties":{"iconCaption":"180 граница Петушинского и Киржачского районов Владимирской области","marker-color":"#1e98ff"}},{"type":"Feature","id":72,"geometry":{"type":"Point","coordinates":[38.93064726662957,56.01125375936346]},"properties":{"iconCaption":"39 Трубы, лес","marker-color":"#1e98ff"}},{"type":"Feature","id":73,"geometry":{"type":"Point","coordinates":[38.93792141747797,56.00610853496478]},"properties":{"description":"Имеет выятнутую форму, старица р. Киржач","iconCaption":"14 Старый Киржач, Старая река","marker-color":"#1e98ff"}},{"type":"Feature","id":74,"geometry":{"type":"Point","coordinates":[38.94723404717732,56.01365783364581]},"properties":{"description":"Бывшая старица (озеро до \"гати\")","iconCaption":"54 Догадка, озеро","marker-color":"#1e98ff"}},{"type":"Feature","id":75,"geometry":{"type":"Point","coordinates":[38.95661104989242,56.003619825832544]},"properties":{"description":"Отсоединилось от оз. Догадка в сторону с. Санино<br/>заводка","iconCaption":"43 оз. Неверово","marker-color":"#1e98ff"}},{"type":"Feature","id":76,"geometry":{"type":"Point","coordinates":[38.95577420068104,56.00945060479746]},"properties":{"description":"Сосоновый строевой лес для изб","iconCaption":"38 Селепено, лес","marker-color":"#1e98ff"}},{"type":"Feature","id":77,"geometry":{"type":"Point","coordinates":[38.95925034356383,56.006541336906245]},"properties":{"description":"Заливной луг у оз. Догадка","iconCaption":"55 Осик (Осек)","marker-color":"#1e98ff"}},{"type":"Feature","id":78,"geometry":{"type":"Point","coordinates":[38.96757592034515,55.998774197307306]},"properties":{"iconCaption":"128 Ляда, лес","marker-color":"#1e98ff"}},{"type":"Feature","id":79,"geometry":{"type":"Point","coordinates":[38.95834912133448,55.99701855912131]},"properties":{"description":"Луг, круглый как каблук","iconCaption":"65 Клабыково (от Каблуково)","marker-color":"#1e98ff"}},{"type":"Feature","id":80,"geometry":{"type":"Point","coordinates":[38.95186890435528,56.012095202479905]},"properties":{"description":"Здесь же подвесной мост через оз. Догадка","iconCaption":"37 Клин, луг","marker-color":"#1e98ff"}},{"type":"Feature","id":81,"geometry":{"type":"Point","coordinates":[39.014240242102765,56.01980100531216]},"properties":{"description":"Низинка у Старого Сельца в сторону Воронова","iconCaption":"166 Долинка","marker-color":"#1e98ff"}},{"type":"Feature","id":82,"geometry":{"type":"Point","coordinates":[39.00986287698989,56.020425940123076]},"properties":{"description":"Рядом с Мухановской порубкой, левее д. Вороново","iconCaption":"21 Иванково, луг, лес","marker-color":"#1e98ff"}},{"type":"Feature","id":83,"geometry":{"type":"Point","coordinates":[39.02960393533831,56.03916926564755]},"properties":{"description":"Болото от р. Молодыни в сторону Воронова. Возможно, название связано с болотной растительностью - шуварой (словарь Даля т.4 с. 1480)","iconCaption":"168 Шубара","marker-color":"#1e98ff"}},{"type":"Feature","id":84,"geometry":{"type":"Point","coordinates":[38.993018604377184,56.02343087982726]},"properties":{"iconCaption":"169 Дунин лес","marker-color":"#1e98ff"}},{"type":"Feature","id":85,"geometry":{"type":"Point","coordinates":[39.01132199869424,56.02591830619052]},"properties":{"description":"Название либо от глагола \"захряпнуть\", то есть заглохнуть, порасти сорными травами, стать непроходимим. В. Даль т. 1 с. 1649. Либо от глагола \"захрять\", залядеть, задернеть. Там же.","iconCaption":"170 Захряпин лес","marker-color":"#1e98ff"}},{"type":"Feature","id":86,"geometry":{"type":"Point","coordinates":[38.96653983698306,55.96103583435916]},"properties":{"iconCaption":"100 Грошев отруб","marker-color":"#1e98ff"}},{"type":"Feature","id":87,"geometry":{"type":"Point","coordinates":[38.96344993219752,55.964117038190906]},"properties":{"description":"у ж/д станции \"пл. 168 км\"","iconCaption":"105 Лошадиное кладбище","marker-color":"#1e98ff"}},{"type":"Feature","id":88,"geometry":{"type":"Point","coordinates":[38.96181347487479,55.97546935929849]},"properties":{"description":"Здесь брали глину для печей","iconCaption":"127 Глинищи","marker-color":"#1e98ff"}},{"type":"Feature","id":89,"geometry":{"type":"Point","coordinates":[38.9392456780474,55.98072241385819]},"properties":{"iconCaption":"66 Репище, лес","marker-color":"#1e98ff"}},{"type":"Feature","id":90,"geometry":{"type":"Point","coordinates":[38.944610096077284,55.97735378617694]},"properties":{"description":"Название говорит о низкой, болотистой местности, ср. мочижина","iconCaption":"67 Мочина, лес","marker-color":"#1e98ff"}},{"type":"Feature","id":91,"geometry":{"type":"Point","coordinates":[38.95452354059633,55.97242062106922]},"properties":{"iconCaption":"68 Савина гора","marker-color":"#1e98ff"}},{"type":"Feature","id":92,"geometry":{"type":"Point","coordinates":[38.956068492987825,55.968882791011524]},"properties":{"iconCaption":"58 Лачужский лес","marker-color":"#1e98ff"}},{"type":"Feature","id":93,"geometry":{"type":"Point","coordinates":[38.94190642938969,55.974345833536745]},"properties":{"description":"Сосновый лес сразу за ж/д, до Котятино","iconCaption":"57 Борынь, лес","marker-color":"#1e98ff"}},{"type":"Feature","id":94,"geometry":{"type":"Point","coordinates":[38.929890133003234,55.97186710438812]},"properties":{"iconCaption":"56 Котятино, пустошь, лес","marker-color":"#1e98ff"}},{"type":"Feature","id":95,"geometry":{"type":"Point","coordinates":[38.9282593499225,55.98505307387184]},"properties":{"iconCaption":"42 Дровяные, лес","marker-color":"#1e98ff"}},{"type":"Feature","id":96,"geometry":{"type":"Point","coordinates":[38.918732143500996,55.98748284140154]},"properties":{"iconCaption":"41 Тимонино, лес","marker-color":"#1e98ff"}},{"type":"Feature","id":97,"geometry":{"type":"Point","coordinates":[38.902553058722724,55.98146828396485]},"properties":{"description":"Болото, у В. Даля ноговица — это подколенник, надеваемый на голень для утепления (В. Даль, т. 2 с. 1433)","iconCaption":"36 Ноговицы (Ногавицы)","marker-color":"#1e98ff"}},{"type":"Feature","id":98,"geometry":{"type":"Point","coordinates":[38.90525672541078,55.97453834978367]},"properties":{"iconCaption":"35 Добрилово, пустошь, лес","marker-color":"#1e98ff"}},{"type":"Feature","id":99,"geometry":{"type":"Point","coordinates":[38.882468677619805,55.96103583403887]},"properties":{"description":"В основном еловый лес, отсюда и название","iconCaption":"34 Черная грива, лес","marker-color":"#1e98ff"}},{"type":"Feature","id":100,"geometry":{"type":"Point","coordinates":[38.88854167315662,55.944899898467256]},"properties":{"description":"Приток р. Большая Дубна","iconCaption":"48 р. Дубенка","marker-color":"#1e98ff"}},{"type":"Feature","id":101,"geometry":{"type":"Point","coordinates":[38.88354156122615,55.95244086059265]},"properties":{"iconCaption":"50 Каменка, лес","marker-color":"#1e98ff"}},{"type":"Feature","id":102,"geometry":{"type":"Point","coordinates":[38.89650199518612,55.95350028862505]},"properties":{"description":"Покос","iconCaption":"49 Жилинское болото","marker-color":"#1e98ff"}},{"type":"Feature","id":103,"geometry":{"type":"Point","coordinates":[38.90560004816416,55.96510393460533]},"properties":{"description":"Пустошь, покос по болоту, возможно от слова \"ковыль\"","iconCaption":"33 Ковелино (Кавелино)","marker-color":"#1e98ff"}},{"type":"Feature","id":104,"geometry":{"type":"Point","coordinates":[38.90937659845759,55.95003296132927]},"properties":{"description":"До Революции здесь проходила дорога из Санино через Теперки, Трусово и Малую Дубну в г. Орехово-Зуево. Лесниками были несколько поколений Гурьяновых","iconCaption":"136 Бордовая лесная сторожка","marker-color":"#1e98ff"}},{"type":"Feature","id":105,"geometry":{"type":"Point","coordinates":[38.91023453550244,55.95630496179129]},"properties":{"description":"Приток реки Мысовки","iconCaption":"47 Новая речка","marker-color":"#1e98ff"}},{"type":"Feature","id":106,"geometry":{"type":"Point","coordinates":[38.93744323358944,55.94781756119308]},"properties":{"description":"Поля и покосы, пастбище. Там же торфоразработки в 1940-70-ые годы. Торф шел по узкоколейке в Электрогорск на завод \"Клаксон\" и теплоэлектроцентраль","iconCaption":"101 Синий камень","marker-color":"#1e98ff"}},{"type":"Feature","id":107,"geometry":{"type":"Point","coordinates":[38.918045497993745,55.94271202407587]},"properties":{"description":"У Даля \"пикуля\" (пикулька) - дудочка, свисток для приманки диких коз (т. 3 с. 277), может быть рядом было пастбище для коз.","iconCaption":"109 Запикулино, мокрый покос по болоту","marker-color":"#1e98ff"}},{"type":"Feature","id":108,"geometry":{"type":"Point","coordinates":[38.97403929338672,55.965019687751884]},"properties":{"iconCaption":"Будилов проулок","marker-color":"#56db40"}},{"type":"Feature","id":109,"geometry":{"type":"Point","coordinates":[38.91360141512099,55.93898647141528]},"properties":{"iconCaption":"130","marker-color":"#1e98ff"}},{"type":"Feature","id":110,"geometry":{"type":"Point","coordinates":[38.90729285951793,55.94303281515656]},"properties":{"description":"Приток реки Мысовка","iconCaption":"47 Новая речка","marker-color":"#1e98ff"}},{"type":"Feature","id":111,"geometry":{"type":"Point","coordinates":[38.92624654825222,55.94209128217469]},"properties":{"description":"Телеги с сеном оказывались в бродказ, в глубокой вящкой водянистой колее. У В. Даля бродный путь или убродный, значит вязкий, топкий, болотистый (т.1 с. 316)","iconCaption":"110 Сухой Дор, болотистый покос","marker-color":"#1e98ff"}},{"type":"Feature","id":112,"geometry":{"type":"Point","coordinates":[38.929937267856396,55.93414251065261]},"properties":{"iconCaption":"134 граница Московской и Владимирской  обл.","marker-color":"#1e98ff"}},{"type":"Feature","id":113,"geometry":{"type":"Point","coordinates":[38.96922626550684,55.94165775478525]},"properties":{"description":"Узкоколейка для транспорта торфа от разработок в Цепнино, Гнездино, Ветчи, Ляпино к г. Электрогорску. Сейчас разрушена и заросла, осталась лишь насыпь","iconCaption":"125 Узкоколейка","marker-color":"#1e98ff"}},{"type":"Feature","id":114,"geometry":{"type":"Point","coordinates":[38.99104871805076,55.94685975823431]},"properties":{"iconCaption":"31 Высоцкое болото","marker-color":"#1e98ff"}},{"type":"Feature","id":115,"geometry":{"type":"Point","coordinates":[38.99126329477243,55.95165172401812]},"properties":{"description":"Поля гречи и картофеля","iconCaption":"74 Керники","marker-color":"#1e98ff"}},{"type":"Feature","id":116,"geometry":{"type":"Point","coordinates":[38.978088284091946,55.959741330021856]},"properties":{"iconCaption":"97 Большие полосы, Заполоски лес","marker-color":"#1e98ff"}},{"type":"Feature","id":117,"geometry":{"type":"Point","coordinates":[38.96399059350832,55.94617342193266]},"properties":{"description":"Торфяное болото, торфоразработки","iconCaption":"84 Высоково (Высоцкое болото)","marker-color":"#1e98ff"}},{"type":"Feature","id":118,"geometry":{"type":"Point","coordinates":[38.97023477609626,55.956948681756664]},"properties":{"description":"По-видимому без растительности","iconCaption":"98 Чистое болото","marker-color":"#1e98ff"}},{"type":"Feature","id":119,"geometry":{"type":"Point","coordinates":[38.979976559236725,55.95622641120176]},"properties":{"description":"В советское время здесь были торфоразработки","iconCaption":"99 Егорьевские карьеры","marker-color":"#1e98ff"}},{"type":"Feature","id":120,"geometry":{"type":"Point","coordinates":[38.995082760409744,55.95704498323948]},"properties":{"description":"Большое поле от ж/д станции до д. Ветчи и в сторону Лачуг","iconCaption":"81 Тележник","marker-color":"#1e98ff"}},{"type":"Feature","id":121,"geometry":{"type":"Point","coordinates":[38.99478235300067,55.95815243437928]},"properties":{"description":"Болото у д. Ветчи. Бывшие торфоразработки в 1980-ые годы","iconCaption":"71 Сватилово (Сватьевское)","marker-color":"#1e98ff"}},{"type":"Feature","id":122,"geometry":{"type":"Point","coordinates":[38.98864545877461,55.961715321363364]},"properties":{"description":"Сюда пригоняли скотину на полдник","iconCaption":"102 Выпасок","marker-color":"#1e98ff"}},{"type":"Feature","id":123,"geometry":{"type":"Point","coordinates":[38.98439683969503,55.96547044029428]},"properties":{"description":"Исчезнувшая улица д. Лачуги. Дорога через ручей засыпана камнем при Баскаковых","iconCaption":"89 Каменка (Камушка)","marker-color":"#1e98ff"}},{"type":"Feature","id":124,"geometry":{"type":"Point","coordinates":[38.99774351175313,55.96159495892223]},"properties":{"description":"Смешанный лес у д. Ветчи. В норах в Первую мировую тут прятались дезертиры","iconCaption":"72 Лисья грива","marker-color":"#1e98ff"}},{"type":"Feature","id":125,"geometry":{"type":"Point","coordinates":[38.99885931070333,55.96515752768508]},"properties":{"description":"Поле у д. Ветчи - овес, рожь, греча","iconCaption":"80 Аргуновское поле","marker-color":"#1e98ff"}},{"type":"Feature","id":126,"geometry":{"type":"Point","coordinates":[38.991477871494325,55.96636102378794]},"properties":{"description":"По отношению к р. Лачужке","iconCaption":"96 Заречная грива","marker-color":"#1e98ff"}},{"type":"Feature","id":127,"geometry":{"type":"Point","coordinates":[39.04070177133554,55.996027347099464]},"properties":{"description":"Низинка по дороге от д. Цепнино к Панфилову, всегда заболочена","iconCaption":"163 Ручей","marker-color":"#1e98ff"}},{"type":"Feature","id":128,"geometry":{"type":"Point","coordinates":[39.05349054391802,55.99855262024226]},"properties":{"iconCaption":"144 ьольшое Смолево, поле","marker-color":"#1e98ff"}},{"type":"Feature","id":129,"geometry":{"type":"Point","coordinates":[39.053233051852864,55.99463236300889]},"properties":{"description":"Возможно когда-то здесь был лес и добывали смолу из деревьев","iconCaption":"145 Малое Смолево поле","marker-color":"#1e98ff"}},{"type":"Feature","id":130,"geometry":{"type":"Point","coordinates":[39.04739656503658,55.991770082476584]},"properties":{"iconCaption":"154 Омшарка, покос по болоту","marker-color":"#1e98ff"}},{"type":"Feature","id":131,"geometry":{"type":"Point","coordinates":[39.04319086130124,55.98796941466762]},"properties":{"iconCaption":"150 Загумны, лес","marker-color":"#1e98ff"}},{"type":"Feature","id":132,"geometry":{"type":"Point","coordinates":[39.03160371835689,55.98691093405394]},"properties":{"description":"Покос за д. Цепнино, за леском","iconCaption":"157 I-IV Березки","marker-color":"#1e98ff"}},{"type":"Feature","id":133,"geometry":{"type":"Point","coordinates":[39.0235356336401,55.99066359765393]},"properties":{"description":"Покос по болоту","iconCaption":"6 Усиха","marker-color":"#1e98ff"}},{"type":"Feature","id":134,"geometry":{"type":"Point","coordinates":[39.006884480075605,55.96631288454746]},"properties":{"description":"Поля картофеля, гречи, овса, ржи","iconCaption":"75 Заборка","marker-color":"#1e98ff"}},{"type":"Feature","id":135,"geometry":{"type":"Point","coordinates":[39.01028615871958,55.96437719238574]},"properties":{"iconCaption":"77 Нови, луга, низкое место","marker-color":"#1e98ff"}},{"type":"Feature","id":136,"geometry":{"type":"Point","coordinates":[39.01162662561338,55.967829237471925]},"properties":{"description":"Низкое место, луга, пруд. Рядом с р. Киржач горка Лимонка, большой печасный холм яркожелтого цвета","iconCaption":"76 Зозерьи (Заозерье)","marker-color":"#1e98ff"}},{"type":"Feature","id":137,"geometry":{"type":"Point","coordinates":[39.017634773807046,55.96705903406274]},"properties":{"iconCaption":"78 Загрива, луга","marker-color":"#1e98ff"}},{"type":"Feature","id":138,"geometry":{"type":"Point","coordinates":[39.014822598169665,55.964901597200836]},"properties":{"description":"Перед ним, ближе к д. Ветчи, заливные луга","iconCaption":"70 Грива, смешанный лес","marker-color":"#1e98ff"}},{"type":"Feature","id":139,"geometry":{"type":"Point","coordinates":[39.01939430292095,55.96326796274876]},"properties":{"iconCaption":"78 Загрива, луга","marker-color":"#1e98ff"}},{"type":"Feature","id":140,"geometry":{"type":"Point","coordinates":[39.03297700937139,55.9595246655981]},"properties":{"description":"Большие бревенчатые, размером с дом, колхозные сенные сараи","iconCaption":"79 Тройные сараи","marker-color":"#ed4543"}},{"type":"Feature","id":141,"geometry":{"type":"Point","coordinates":[39.033792400912525,55.95588934756957]},"properties":{"description":"лес, болото, торфоразработки, возможно когда-то здесь добывали деготь","iconCaption":"73 Детярка (Дегтярка)","marker-color":"#1e98ff"}},{"type":"Feature","id":142,"geometry":{"type":"Point","coordinates":[39.04327669198966,55.962028261779466]},"properties":{"description":"Луг д. Олехово и Панфилово, жителей этих деревнь называли \"хованскими\", так как деревни в старину принадлежали кньзьям Хованским","iconCaption":"85 Хованка, луг","marker-color":"#ed4543"}},{"type":"Feature","id":143,"geometry":{"type":"Point","coordinates":[39.04816904123284,55.964772400869016]},"properties":{"description":"Небольшой круглый луг на левом берегу р. Киржач","iconCaption":"83 Липовик","marker-color":"#1e98ff"}},{"type":"Feature","id":144,"geometry":{"type":"Point","coordinates":[39.031775379733,55.96603608284466]},"properties":{"iconCaption":"82 Березовик, луг","marker-color":"#1e98ff"}},{"type":"Feature","id":145,"geometry":{"type":"Point","coordinates":[39.02621351205363,55.99986476706633]},"properties":{"description":"Болото и торфоразработки со стороны д. Цепнино","iconCaption":"159 Загрязье","marker-color":"#1e98ff"}},{"type":"Feature","id":146,"geometry":{"type":"Point","coordinates":[39.06560445673687,55.97735885048604]},"properties":{"description":"Узкоколейка для транспорта торфа от разработок в Цепнино, Гнездино, Ветчи, Ляпино к г. Электрогорску. Сейчас разрушена и заросла, соталась лишь насыпь","iconCaption":"125 Узкоколейка","marker-color":"#1e98ff"}},{"type":"Feature","id":147,"geometry":{"type":"Point","coordinates":[39.06104364450431,55.98205117230208]},"properties":{"iconCaption":"147 Паленов отруб","marker-color":"#1e98ff"}},{"type":"Feature","id":148,"geometry":{"type":"Point","coordinates":[39.03241910989614,55.97149952798034]},"properties":{"description":"от д. Цепнино до Ездового брода","iconCaption":"161 Цепнинский луг","marker-color":"#1e98ff"}},{"type":"Feature","id":149,"geometry":{"type":"Point","coordinates":[39.042032147006594,55.97808110960115]},"properties":{"iconCaption":"152 Зарослое, урочище","marker-color":"#1e98ff"}},{"type":"Feature","id":150,"geometry":{"type":"Point","coordinates":[39.042289639072145,55.97302771099588]},"properties":{"description":"Название говорит о том, что озерцо зарастает режущей осокой","iconCaption":"153 Осек, озерцо, боллотце","marker-color":"#1e98ff"}},{"type":"Feature","id":151,"geometry":{"type":"Point","coordinates":[39.049134636477746,55.966276779885085]},"properties":{"description":"Будыль - срезанный, скошенный стебель. По кошеному как раз ногу на будылку напорешь (Даль т. 1 с. 335)","iconCaption":"156 Будило, покос","marker-color":"#1e98ff"}},{"type":"Feature","id":152,"geometry":{"type":"Point","coordinates":[39.047332192019624,55.967973649171654]},"properties":{"description":"Название возможно говорит о горевшем лесе — гари","iconCaption":"155 Гарины гривы","marker-color":"#1e98ff"}},{"type":"Feature","id":153,"geometry":{"type":"Point","coordinates":[38.95615261778099,55.98318798268154]},"properties":{"description":"Примерное местоположение. Требует уточнения на местности","iconCaption":"Старообрядческое кладбище","marker-color":"#1e98ff"}},{"type":"Feature","id":154,"geometry":{"type":"Point","coordinates":[38.99799507841304,55.982520338647056]},"properties":{"description":"Покос от Браского бугра до Лачуг; сырое место","iconCaption":"107 Ксениха/Косениха","marker-color":"#1e98ff"}},{"type":"Feature","id":155,"geometry":{"type":"Point","coordinates":[38.99462622388982,55.98724773022838]},"properties":{"description":"Мокрый покос. Называют два варианта: сразу за д. лачуги, на горке; или же почти у моста через р. Киржач и Аргуновской церкви","iconCaption":"106 Бык","marker-color":"#1e98ff"}},{"type":"Feature","id":156,"geometry":{"type":"Point","coordinates":[38.99366062864377,55.98651399953588]},"properties":{"description":"Место где косили барсковские, сокращенно барские. На правой стороне р. Киржач, напротив луга Еловцы","iconCaption":"20 Мальцевский луг и Барские бугры","marker-color":"#1e98ff"}},{"type":"Feature","id":157,"geometry":{"type":"Point","coordinates":[38.98709458097651,55.986947023231394]},"properties":{"description":"Позади д. Плотавцево","iconCaption":"64 Задний луг","marker-color":"#1e98ff"}},{"type":"Feature","id":158,"geometry":{"type":"Point","coordinates":[39.021684348432366,55.98434881312993]},"properties":{"iconCaption":"146 Дубровка, покос по болоту","marker-color":"#1e98ff"}},{"type":"Feature","id":159,"geometry":{"type":"Point","coordinates":[39.02361553892273,55.97828564202314]},"properties":{"iconCaption":"151 Старица, озеро","marker-color":"#1e98ff"}},{"type":"Feature","id":160,"geometry":{"type":"Point","coordinates":[38.99871487988569,55.98856096028322]},"properties":{"description":"Покос по болоту","iconCaption":"4 Бобыло","marker-color":"#1e98ff"}},{"type":"Feature","id":161,"geometry":{"type":"Point","coordinates":[39.00128883108245,55.98594264292681]},"properties":{"iconCaption":"5 Еловцы, луг","marker-color":"#1e98ff"}},{"type":"Feature","id":162,"geometry":{"type":"Point","coordinates":[39.00600951894786,55.97948872755908]},"properties":{"iconCaption":"91 Цепнинский омут на р. Киржач","marker-color":"#1e98ff"}},{"type":"Feature","id":163,"geometry":{"type":"Point","coordinates":[39.00782269224201,55.9757831020106]},"properties":{"description":"От Цепнинского омута вниз по р. Киржач","iconCaption":"94 Лачужский луг","marker-color":"#1e98ff"}},{"type":"Feature","id":164,"geometry":{"type":"Point","coordinates":[38.94145858188717,55.99331604790666]},"properties":{"description":"За бывшим выгоном с. Санино, по левую сторону дороги на Родионово. Здесь была сторожка лесников Гурьяновых","iconCaption":"181 Гурьянов лес","marker-color":"#1e98ff"}},{"type":"Feature","id":165,"geometry":{"type":"Point","coordinates":[38.98147394831746,56.02475962860378]},"properties":{"description":"Каменицы, места сбора камней с полей (вид местного промысла в Аргуновских деревнях); камни закупались подрядчиком по строительству дорог","iconCaption":"Каменица","marker-color":"#1e98ff"}},{"type":"Feature","id":166,"geometry":{"type":"Point","coordinates":[39.01450899629298,55.9643451463048]},"properties":{"iconCaption":"Горка Лимонка","marker-color":"#1e98ff"}},{"type":"Feature","id":167,"geometry":{"type":"Point","coordinates":[39.0363894384541,55.98361431713359]},"properties":{"description":"за д. Цепнино, между I-IV Березками и ур. Березовиком, по легенде место битвы поляков (панов) и русских в Смутное время, предположительно в 1608 г.","iconCaption":"140 Пансково болото","marker-color":"#1e98ff"}},{"type":"Feature","id":168,"geometry":{"type":"Point","coordinates":[39.03334244901303,55.979066941284536]},"properties":{"description":"Лес, покос в сторону д. Гостец","iconCaption":"158 Березовик, лес","marker-color":"#1e98ff"}},{"type":"Feature","id":169,"geometry":{"type":"Point","coordinates":[39.02769477220527,55.964601345838]},"properties":{"description":"На лошадях переезжали брод от Цепнино в Ветчи","iconCaption":"160 Ездовой брод","marker-color":"#1e98ff"}},{"type":"Feature","id":170,"geometry":{"type":"Point","coordinates":[39.04730708452174,56.00181463406626]},"properties":{"iconCaption":"148 Подзабелово","marker-color":"#1e98ff"}},{"type":"Feature","id":171,"geometry":{"type":"Point","coordinates":[39.03494746537948,56.013079188869426]},"properties":{"iconCaption":"30 Подорешнеы полосы","marker-color":"#1e98ff"}},{"type":"Feature","id":172,"geometry":{"type":"Point","coordinates":[39.05057402653317,56.01376432741446]},"properties":{"iconCaption":"1 Протомойка, ручей","marker-color":"#1e98ff"}},{"type":"Feature","id":173,"geometry":{"type":"Point","coordinates":[39.05675383610345,56.02214132989886]},"properties":{"iconCaption":"16 Митрошино, лес","marker-color":"#1e98ff"}},{"type":"Feature","id":174,"geometry":{"type":"Point","coordinates":[39.0407034973573,56.02223746799251]},"properties":{"description":"Тот же что и 18, лес со стороны д. Вороново","iconCaption":"17 Болотце, лес","marker-color":"#1e98ff"}},{"type":"Feature","id":175,"geometry":{"type":"Point","coordinates":[39.041990957685236,56.027428598389754]},"properties":{"description":"Тот же что и 17 - лес со стороны д. Вороново","iconCaption":"18 Борок, лес","marker-color":"#1e98ff"}},{"type":"Feature","id":176,"geometry":{"type":"Point","coordinates":[39.017357550092626,56.032907363909246]},"properties":{"description":"По владельцу — помещику Муханову","iconCaption":"15 Мухановский лес","marker-color":"#1e98ff"}},{"type":"Feature","id":177,"geometry":{"type":"Point","coordinates":[39.03194876713341,56.031417601745225]},"properties":{"description":"Лошадиное кладбище у Старого Сельца","iconCaption":"187 Лошадиное кладбище","marker-color":"#1e98ff"}},{"type":"Feature","id":178,"geometry":{"type":"Point","coordinates":[39.037613592572846,56.041220140147516]},"properties":{"iconCaption":"176 Чистые пруды, дволь болота Шубары","marker-color":"#1e98ff"}},{"type":"Feature","id":179,"geometry":{"type":"Point","coordinates":[39.03173419041169,56.01680525752976]},"properties":{"iconCaption":"22 Долгие полосы, луга","marker-color":"#1e98ff"}},{"type":"Feature","id":180,"geometry":{"type":"Point","coordinates":[39.079220018810595,55.9900296051663]},"properties":{"iconCaption":"149 Минина гора","marker-color":"#1e98ff"}},{"type":"Feature","id":181,"geometry":{"type":"Point","coordinates":[38.972102026841725,55.95647720107803]},"properties":{"iconCaption":"Митинское болото","marker-color":"#56db40"}},{"type":"Feature","id":182,"geometry":{"type":"Point","coordinates":[38.9631510620863,55.94638263529327]},"properties":{"description":"Высоково - потому что место высокое. Когда-то там был строевой сосновый лес, который свели где-то в 1960-70-ые. Брали песок для узкоколейки. Место указано примерно.","iconCaption":"Высоково","marker-color":"#56db40"}},{"type":"Feature","id":183,"geometry":{"type":"Point","coordinates":[38.97891172225729,55.95451548082793]},"properties":{"description":"Место указано примерно","iconCaption":"Егорово","marker-color":"#56db40"}},{"type":"Feature","id":184,"geometry":{"type":"Point","coordinates":[38.97326835448991,55.97483106697313]},"properties":{"description":"Потому, что за скотным двором. Семейное название.","iconCaption":"Заскотный лес","marker-color":"#56db40"}},{"type":"Feature","id":185,"geometry":{"type":"Point","coordinates":[38.990595424725726,55.95982615307724]},"properties":{"description":"Часть дороги, которая была замощена мелким камнем, чтобы её не размывало. Из маленького болотца вытекала вода.","iconCaption":"Камушки","marker-color":"#56db40"}},{"type":"Feature","id":186,"geometry":{"type":"Point","coordinates":[38.98410716112133,55.96550654541152]},"properties":{"description":"Вероятно, ошибка. Камушками называли более дальнюю часть дороги. Здесь вообще не было дороги, так как она шла через поле, где сейчас дачные посёлки.","marker-color":"#ed4543"}},{"type":"Feature","id":187,"geometry":{"type":"Point","coordinates":[38.99574258382595,55.970536862225686]},"properties":{"description":"За рекой Лачужкой","iconCaption":"Заречная грива","marker-color":"#56db40"}},{"type":"Feature","id":188,"geometry":{"type":"Point","coordinates":[38.992073321895234,55.966336954018885]},"properties":{"description":"Вероятно, не совсем точно локализирован. В целом - лес верно указан. Но это название в первую очередь для той части леса, которая находится за рекой Лачужкой.","marker-color":"#ed4543"}},{"type":"Feature","id":189,"geometry":{"type":"Point","coordinates":[39.00097825582465,55.97176425781124]},"properties":{"description":"Вероятно, часть старого русла. Топоним связан с деревенской фамилией Филлиповых.","iconCaption":"Филипповка (старица Киржача)","marker-color":"#56db40"}},{"type":"Feature","id":190,"geometry":{"type":"Point","coordinates":[39.00462337787384,55.97414372565747]},"properties":{"description":"Топоним связан с деревенской фамилией Ерёминых.","iconCaption":"Ерёмин омут","marker-color":"#56db40"}},{"type":"Feature","id":191,"geometry":{"type":"Point","coordinates":[38.99859108979791,55.97609742677778]},"properties":{"description":"Раньше пляж был на левом берегу Киржача на протяжении всего изгиба. Железы - потому что на дне много железистых отложений (кусочков). Заросли в 1970-90 гг.","iconCaption":"Железы","marker-color":"#56db40"}},{"type":"Feature","id":192,"geometry":{"type":"Point","coordinates":[39.00288798864314,55.976822333925305]},"properties":{"description":"Пляж находился на правом берегу реки. Назван так из-за изгиба реки, а также из-за удобства для водопоя стада. Зарос 1970-2000 гг.","iconCaption":"Коровий рог","marker-color":"#56db40"}},{"type":"Feature","id":193,"geometry":{"type":"Point","coordinates":[38.994950771180896,55.98695754778068]},"properties":{"description":"Вероятно, место так названо из-за того, что в эту высокую часть берега при разливе вода упиралась как в опору моста (бык).","iconCaption":"Бык","marker-color":"#56db40"}},{"type":"Feature","id":194,"geometry":{"type":"Point","coordinates":[38.99237316831746,55.99234686556814]},"properties":{"description":"Между частями вала. Вал видно даже со спутника. Возможно, даже старые опоры ещё сохранились.","iconCaption":"Старый мост","marker-color":"#56db40"}},{"type":"Feature","id":195,"geometry":{"type":"Point","coordinates":[38.993998586980446,55.99143583557046]},"properties":{"iconCaption":"Барсковский/Аргуновский пляж","marker-color":"#56db40"}},{"type":"Feature","id":196,"geometry":{"type":"Point","coordinates":[39.0056774860185,55.97592033485745]},"properties":{"description":"Правый берег на изгибе. Зарос в 1970-90 гг.","iconCaption":"Ерёмин пляж","marker-color":"#56db40"}},{"type":"Feature","id":197,"geometry":{"type":"Point","coordinates":[39.006315851762416,55.98062447537027]},"properties":{"description":"Правый берег. Зарос в 1970-90 гг.","iconCaption":"Цепнинский пляж","marker-color":"#56db40"}},{"type":"Feature","id":198,"geometry":{"type":"Point","coordinates":[39.051197255207924,55.898289845417935]},"properties":{"description":"(большая дорога)","iconCaption":"Большак","marker-color":"#56db40"}},{"type":"Feature","id":199,"geometry":{"type":"Point","coordinates":[39.05059644038843,55.90026698287341]},"properties":{"description":"Не знаем, почему так называлась, до того, как появилось бетонное основание. Оно появилось примерно в конце 1960-х гг. После этого стали называть \"бетонка\". Так называли, пока не положили асфальт где-то в конце 2000-х - начале 2010-х гг.","iconCaption":"просёлочная дорога Доньшино","marker-color":"#56db40"}}]}