<?xml version="1.0" encoding="UTF-8"?>
<kml xmlns="http://www.opengis.net/kml/2.2"><Document><Style id="strokeColor:56db40e6_strokeWidth:5"><LineStyle><color>e640db56</color><width>5</width></LineStyle></Style><Style id="fillColor:56db4099_strokeColor:56db40e6_strokeWidth:5"><LineStyle><color>e640db56</color><width>5</width></LineStyle><PolyStyle><color>9940db56</color><fill>1</fill><outline>1</outline></PolyStyle></Style><ExtendedData><Data name="creator"><value><![CDATA[Yandex Map Constructor]]></value></Data></ExtendedData><name><![CDATA[Карта микротопонимов к окрестностям аргуновских деревень]]></name><description><![CDATA[Составитель Н.В. Большакова, Илья Орлов (Лачуги)]]></description><Folder><Placemark><name/><description><![CDATA[Зубовка]]></description><styleUrl>#fillColor:56db4099_strokeColor:56db40e6_strokeWidth:5</styleUrl><Polygon><outerBoundaryIs><LinearRing><coordinates>38.97156558503947,55.96717887765 38.972735028169964,55.96748575662161 38.97108278741679,55.96936308068862 38.96985970010601,55.96902613182228 38.97156558503947,55.96717887765</coordinates></LinearRing></outerBoundaryIs></Polygon></Placemark><Placemark><name/><description><![CDATA[Лачуги. Историческое название деревни, которое существовало не менее 300 лет.]]></description><styleUrl>#fillColor:56db4099_strokeColor:56db40e6_strokeWidth:5</styleUrl><Polygon><outerBoundaryIs><LinearRing><coordinates>38.98487159068551,55.96876677051317 38.98401328380042,55.96924812836805 38.978589857172906,55.96763419161671 38.9738155251259,55.9660289332942 38.971321070742256,55.96948278812563 38.96952935511991,55.969127789466405 38.97245832736426,55.96567390278659 38.96545239741728,55.964368084484136 38.965709889483236,55.963802416762356 38.967276299547805,55.963567722396505 38.97392281348656,55.965162412421606 38.979314053606444,55.96648023853839 38.98487159068551,55.96876677051317</coordinates></LinearRing></outerBoundaryIs></Polygon></Placemark><Placemark><name/><description><![CDATA[Серёдка. Срединная часть старого порядка деревни. Концы указаны приблизительно.]]></description><styleUrl>#strokeColor:56db40e6_strokeWidth:5</styleUrl><LineString><coordinates>38.9713983548067,55.96498583507895 38.976365805902276,55.96617429300771</coordinates></LineString></Placemark><Placemark><name><![CDATA[168 Шубара]]></name><description><![CDATA[болото от речки Молодыни в сторону Вороново (возможно, название связано с болотной растительностью – шуварой. Это слово есть в словаре В. Даля. Т. 4. С. 1480)]]></description><Style><IconStyle><color>ffff981e</color><Icon><href>https://api-maps.yandex.ru/i/0.4/micro/pmbls.png</href></Icon><hotSpot x="7" y="28" xunits="pixels" yunits="insetPixels"/></IconStyle></Style><Point><coordinates>38.99502490697159,56.045226658849344</coordinates></Point></Placemark><Placemark><name><![CDATA[182 Лысая гора (Горка)]]></name><description><![CDATA[на которой расположена деревня Старое сельцо. Название деревни осталось от тех пор, когда здесь жили помещики Мячковы и были их дома, было сельцо]]></description><Style><IconStyle><color>ffff981e</color><Icon><href>https://api-maps.yandex.ru/i/0.4/micro/pmbls.png</href></Icon><hotSpot x="7" y="28" xunits="pixels" yunits="insetPixels"/></IconStyle></Style><Point><coordinates>38.97936080632446,56.02677466919085</coordinates></Point></Placemark><Placemark><name><![CDATA[11 Мухановская лесопилка]]></name><description><![CDATA[по владельцу]]></description><Style><IconStyle><color>ffff981e</color><Icon><href>https://api-maps.yandex.ru/i/0.4/micro/pmbls.png</href></Icon><hotSpot x="7" y="28" xunits="pixels" yunits="insetPixels"/></IconStyle></Style><Point><coordinates>39.00791292128756,56.03775112665986</coordinates></Point></Placemark><Placemark><name><![CDATA[61 Тимонино]]></name><description><![CDATA[за д. Родионово, там когда-то жили старообрядцы]]></description><Style><IconStyle><color>ffff981e</color><Icon><href>https://api-maps.yandex.ru/i/0.4/micro/pmbls.png</href></Icon><hotSpot x="7" y="28" xunits="pixels" yunits="insetPixels"/></IconStyle></Style><Point><coordinates>38.95584639415162,55.98652487055246</coordinates></Point></Placemark><Placemark><name><![CDATA[121 Новая деревня]]></name><description><![CDATA[часть д. Родионово]]></description><Style><IconStyle><color>ffff981e</color><Icon><href>https://api-maps.yandex.ru/i/0.4/micro/pmbls.png</href></Icon><hotSpot x="7" y="28" xunits="pixels" yunits="insetPixels"/></IconStyle></Style><Point><coordinates>38.953754271122186,55.985472366563585</coordinates></Point></Placemark><Placemark><name><![CDATA[120 Золотая середина]]></name><description><![CDATA[часть Родионово, место игры в футбол, гулянок и просмотра кино]]></description><Style><IconStyle><color>ffff981e</color><Icon><href>https://api-maps.yandex.ru/i/0.4/micro/pmbls.png</href></Icon><hotSpot x="7" y="28" xunits="pixels" yunits="insetPixels"/></IconStyle></Style><Point><coordinates>38.948647345156,55.98756532046376</coordinates></Point></Placemark><Placemark><name><![CDATA[119	Чертов конец]]></name><description><![CDATA[в д. Родионово (низинка к Крыночкам)]]></description><Style><IconStyle><color>ffff981e</color><Icon><href>https://api-maps.yandex.ru/i/0.4/micro/pmbls.png</href></Icon><hotSpot x="7" y="28" xunits="pixels" yunits="insetPixels"/></IconStyle></Style><Point><coordinates>38.957123125644905,55.98868392315937</coordinates></Point></Placemark><Placemark><name><![CDATA[122	Крыночки]]></name><description><![CDATA[ритуальное место по дороге на кладбище, где оставляли горшочки, из которых обмывали покойника. Это место для правобережных деревень]]></description><Style><IconStyle><color>ffff981e</color><Icon><href>https://api-maps.yandex.ru/i/0.4/micro/pmbls.png</href></Icon><hotSpot x="7" y="28" xunits="pixels" yunits="insetPixels"/></IconStyle></Style><Point><coordinates>38.958582247349,55.98870196484895</coordinates></Point></Placemark><Placemark><name><![CDATA[69 Филимонова]]></name><description><![CDATA[речка]]></description><Style><IconStyle><color>ffff981e</color><Icon><href>https://api-maps.yandex.ru/i/0.4/micro/pmbls.png</href></Icon><hotSpot x="7" y="28" xunits="pixels" yunits="insetPixels"/></IconStyle></Style><Point><coordinates>38.96281477317363,55.990776703088045</coordinates></Point></Placemark><Placemark><name><![CDATA[124	Филимонов луг]]></name><description/><Style><IconStyle><color>ffff981e</color><Icon><href>https://api-maps.yandex.ru/i/0.4/micro/pmbls.png</href></Icon><hotSpot x="7" y="28" xunits="pixels" yunits="insetPixels"/></IconStyle></Style><Point><coordinates>38.970067466349775,55.990734607862166</coordinates></Point></Placemark><Placemark><name><![CDATA[14а	Вороновская река]]></name><description><![CDATA[продолжение Старой реки]]></description><Style><IconStyle><color>ffff981e</color><Icon><href>https://api-maps.yandex.ru/i/0.4/micro/pmbls.png</href></Icon><hotSpot x="7" y="28" xunits="pixels" yunits="insetPixels"/></IconStyle></Style><Point><coordinates>38.97036787375928,55.99400585510527</coordinates></Point></Placemark><Placemark><name><![CDATA[129	Кудринский луг]]></name><description/><Style><IconStyle><color>ffff981e</color><Icon><href>https://api-maps.yandex.ru/i/0.4/micro/pmbls.png</href></Icon><hotSpot x="7" y="28" xunits="pixels" yunits="insetPixels"/></IconStyle></Style><Point><coordinates>38.97802826270665,55.993410558253466</coordinates></Point></Placemark><Placemark><name><![CDATA[25 Ганин ручей]]></name><description><![CDATA[Ганя]]></description><Style><IconStyle><color>ffff981e</color><Icon><href>https://api-maps.yandex.ru/i/0.4/micro/pmbls.png</href></Icon><hotSpot x="7" y="28" xunits="pixels" yunits="insetPixels"/></IconStyle></Style><Point><coordinates>38.98045297965572,55.99446284674451</coordinates></Point></Placemark><Placemark><name><![CDATA[139 Вшивая горка]]></name><description><![CDATA[у Ганина ручья (это песчаный курган высотой 10 м, один из трех по Киржачу, где будто бы зарыты Золотые ворота г. Владимира. Второй курган был у ур. Быки, третий – у ур. Заплетень. Слово «вшивый» означает пренебрежение]]></description><Style><IconStyle><color>ffff981e</color><Icon><href>https://api-maps.yandex.ru/i/0.4/micro/pmbls.png</href></Icon><hotSpot x="7" y="28" xunits="pixels" yunits="insetPixels"/></IconStyle></Style><Point><coordinates>38.98372527465445,55.99437866520734</coordinates></Point></Placemark><Placemark><name><![CDATA[26 Третной]]></name><description><![CDATA[ур., луг?]]></description><Style><IconStyle><color>ffff981e</color><Icon><href>https://api-maps.yandex.ru/i/0.4/micro/pmbls.png</href></Icon><hotSpot x="7" y="28" xunits="pixels" yunits="insetPixels"/></IconStyle></Style><Point><coordinates>38.97872563705041,55.99804642675442</coordinates></Point></Placemark><Placemark><name><![CDATA[117 Круглая лядка/Песочная горочка]]></name><description><![CDATA[лес посреди Среднего поля; до войны здесь добывали торф<br/>]]></description><Style><IconStyle><color>ffff981e</color><Icon><href>https://api-maps.yandex.ru/i/0.4/micro/pmbls.png</href></Icon><hotSpot x="7" y="28" xunits="pixels" yunits="insetPixels"/></IconStyle></Style><Point><coordinates>38.94832011565687,55.992009465611105</coordinates></Point></Placemark><Placemark><name><![CDATA[118 Заплетень]]></name><description><![CDATA[луг за старицей Киржача. Между старицей и мостом был плетень, изгородь, загон для лошадей в ночное время. Старицу во время мелиоративных работ уничтожили. В омутках водились караси, щуки, вьюны]]></description><Style><IconStyle><color>ffff981e</color><Icon><href>https://api-maps.yandex.ru/i/0.4/micro/pmbls.png</href></Icon><hotSpot x="7" y="28" xunits="pixels" yunits="insetPixels"/></IconStyle></Style><Point><coordinates>38.951753343195975,55.99262282537482</coordinates></Point></Placemark><Placemark><name><![CDATA[46 Подберезное]]></name><description><![CDATA[Лес]]></description><Style><IconStyle><color>ffff981e</color><Icon><href>https://api-maps.yandex.ru/i/0.4/micro/pmbls.png</href></Icon><hotSpot x="7" y="28" xunits="pixels" yunits="insetPixels"/></IconStyle></Style><Point><coordinates>38.933057684233006,55.99168626874403</coordinates></Point></Placemark><Placemark><name><![CDATA[126 Ляда]]></name><description><![CDATA[Лес]]></description><Style><IconStyle><color>ffff981e</color><Icon><href>https://api-maps.yandex.ru/i/0.4/micro/pmbls.png</href></Icon><hotSpot x="7" y="28" xunits="pixels" yunits="insetPixels"/></IconStyle></Style><Point><coordinates>38.93168439321942,55.98829454556162</coordinates></Point></Placemark><Placemark><name><![CDATA[45 Родионовская ляда]]></name><description><![CDATA[лес по низине]]></description><Style><IconStyle><color>ffff981e</color><Icon><href>https://api-maps.yandex.ru/i/0.4/micro/pmbls.png</href></Icon><hotSpot x="7" y="28" xunits="pixels" yunits="insetPixels"/></IconStyle></Style><Point><coordinates>38.938722509674456,55.98498672495181</coordinates></Point></Placemark><Placemark><name><![CDATA[59 Раменье]]></name><description><![CDATA[поле и лес]]></description><Style><IconStyle><color>ffff981e</color><Icon><href>https://api-maps.yandex.ru/i/0.4/micro/pmbls.png</href></Icon><hotSpot x="7" y="28" xunits="pixels" yunits="insetPixels"/></IconStyle></Style><Point><coordinates>38.958291906646814,55.98248462066033</coordinates></Point></Placemark><Placemark><name><![CDATA[62 Грива]]></name><description><![CDATA[лес по холму вытянутой формы, напоминает лошадиную холку, отсюда и название]]></description><Style><IconStyle><color>ffff981e</color><Icon><href>https://api-maps.yandex.ru/i/0.4/micro/pmbls.png</href></Icon><hotSpot x="7" y="28" xunits="pixels" yunits="insetPixels"/></IconStyle></Style><Point><coordinates>38.97914876394639,55.98639408673905</coordinates></Point></Placemark><Placemark><name><![CDATA[60 Завал]]></name><description><![CDATA[лес]]></description><Style><IconStyle><color>ffff981e</color><Icon><href>https://api-maps.yandex.ru/i/0.4/micro/pmbls.png</href></Icon><hotSpot x="7" y="28" xunits="pixels" yunits="insetPixels"/></IconStyle></Style><Point><coordinates>38.97243251257368,55.982496650663904</coordinates></Point></Placemark><Placemark><name><![CDATA[138 Задняя]]></name><description><![CDATA[сенокос]]></description><Style><IconStyle><color>ffff981e</color><Icon><href>https://api-maps.yandex.ru/i/0.4/micro/pmbls.png</href></Icon><hotSpot x="7" y="28" xunits="pixels" yunits="insetPixels"/></IconStyle></Style><Point><coordinates>38.98672332220501,55.982159816677175</coordinates></Point></Placemark><Placemark><name><![CDATA[27 Змеевник]]></name><description><![CDATA[болото, луг, лес, упирается в покос Бык]]></description><Style><IconStyle><color>ffff981e</color><Icon><href>https://api-maps.yandex.ru/i/0.4/micro/pmbls.png</href></Icon><hotSpot x="7" y="28" xunits="pixels" yunits="insetPixels"/></IconStyle></Style><Point><coordinates>38.990199465086874,55.978719128354925</coordinates></Point></Placemark><Placemark><name><![CDATA[63 Лучка]]></name><description><![CDATA[луг]]></description><Style><IconStyle><color>ffff981e</color><Icon><href>https://api-maps.yandex.ru/i/0.4/micro/pmbls.png</href></Icon><hotSpot x="7" y="28" xunits="pixels" yunits="insetPixels"/></IconStyle></Style><Point><coordinates>38.99846066885351,55.977973204886645</coordinates></Point></Placemark><Placemark><name><![CDATA[137	Мокрый бык]]></name><description><![CDATA[низинка, может быть, контуры болота напоминали быка]]></description><Style><IconStyle><color>ffff981e</color><Icon><href>https://api-maps.yandex.ru/i/0.4/micro/pmbls.png</href></Icon><hotSpot x="7" y="28" xunits="pixels" yunits="insetPixels"/></IconStyle></Style><Point><coordinates>38.97642363958608,55.97981543559802</coordinates></Point></Placemark><Placemark><name><![CDATA[93 Усадьба Баскакова]]></name><description><![CDATA[в д. Лачуги. Известен как строительный подрядчик, застроивший улицу в Москве в районе Таганки. Построил в Лачугах часовню, частично сохранившуюся, сейчас там магазин, и школу. Дом Баскакова не сохранился]]></description><Style><IconStyle><color>ffff981e</color><Icon><href>https://api-maps.yandex.ru/i/0.4/micro/pmbls.png</href></Icon><hotSpot x="7" y="28" xunits="pixels" yunits="insetPixels"/></IconStyle></Style><Point><coordinates>38.974628667737406,55.96696225721328</coordinates></Point></Placemark><Placemark><name><![CDATA[28 Зубовка]]></name><description><![CDATA[теперь часть д. Красный луч (Лачуги)]]></description><Style><IconStyle><color>ffff981e</color><Icon><href>https://api-maps.yandex.ru/i/0.4/micro/pmbls.png</href></Icon><hotSpot x="7" y="28" xunits="pixels" yunits="insetPixels"/></IconStyle></Style><Point><coordinates>38.97278330793515,55.96862901122897</coordinates></Point></Placemark><Placemark><name><![CDATA[88 Куриная (Курья) гора]]></name><description><![CDATA[часть д. Лачуги. От нее в сторону с. Санино идет дорога через Курью гору. Здесь был постоялый двор, пользовавшийся дурной славой]]></description><Style><IconStyle><color>ffff981e</color><Icon><href>https://api-maps.yandex.ru/i/0.4/micro/pmbls.png</href></Icon><hotSpot x="7" y="28" xunits="pixels" yunits="insetPixels"/></IconStyle></Style><Point><coordinates>38.980829934977066,55.967768564561595</coordinates></Point></Placemark><Placemark><name><![CDATA[29 Лачужка]]></name><description><![CDATA[речка]]></description><Style><IconStyle><color>ffff981e</color><Icon><href>https://api-maps.yandex.ru/i/0.4/micro/pmbls.png</href></Icon><hotSpot x="7" y="28" xunits="pixels" yunits="insetPixels"/></IconStyle></Style><Point><coordinates>39.003671626950485,55.97226312734304</coordinates></Point></Placemark><Placemark><name><![CDATA[86 Матреновка]]></name><description><![CDATA[часть д. Лачуги к ж/д станции «168 км.»]]></description><Style><IconStyle><color>ffff981e</color><Icon><href>https://api-maps.yandex.ru/i/0.4/micro/pmbls.png</href></Icon><hotSpot x="7" y="28" xunits="pixels" yunits="insetPixels"/></IconStyle></Style><Point><coordinates>38.97006891241181,55.96474181217057</coordinates></Point></Placemark><Placemark><name><![CDATA[112 Старый исчезнувший деревянный мост]]></name><description><![CDATA[через р. Киржач у церкви]]></description><Style><IconStyle><color>ffff981e</color><Icon><href>https://api-maps.yandex.ru/i/0.4/micro/pmbls.png</href></Icon><hotSpot x="7" y="28" xunits="pixels" yunits="insetPixels"/></IconStyle></Style><Point><coordinates>38.992068390750916,55.992187511397475</coordinates></Point></Placemark><Placemark><name><![CDATA[113	Нынешний висячий мост]]></name><description><![CDATA[через р. Киржач у бывшей церкви, «лавы»]]></description><Style><IconStyle><color>ffff981e</color><Icon><href>https://api-maps.yandex.ru/i/0.4/micro/pmbls.png</href></Icon><hotSpot x="7" y="28" xunits="pixels" yunits="insetPixels"/></IconStyle></Style><Point><coordinates>38.995882491971116,55.99118627629057</coordinates></Point></Placemark><Placemark><name><![CDATA[8 Попов луг]]></name><description><![CDATA[теперь бор, шел по р. Киржач от церкви к Еловицам]]></description><Style><IconStyle><color>ffff981e</color><Icon><href>https://api-maps.yandex.ru/i/0.4/micro/pmbls.png</href></Icon><hotSpot x="7" y="28" xunits="pixels" yunits="insetPixels"/></IconStyle></Style><Point><coordinates>38.994047861004795,55.99513394267578</coordinates></Point></Placemark><Placemark><name><![CDATA[9 Перерва]]></name><description><![CDATA[луг, по дороге из Барскова к Киржачу, на левом берегу]]></description><Style><IconStyle><color>ffff981e</color><Icon><href>https://api-maps.yandex.ru/i/0.4/micro/pmbls.png</href></Icon><hotSpot x="7" y="28" xunits="pixels" yunits="insetPixels"/></IconStyle></Style><Point><coordinates>38.991798262371766,56.00364072535738</coordinates></Point></Placemark><Placemark><name><![CDATA[10 Долгий луг]]></name><description/><Style><IconStyle><color>ffff981e</color><Icon><href>https://api-maps.yandex.ru/i/0.4/micro/pmbls.png</href></Icon><hotSpot x="7" y="28" xunits="pixels" yunits="insetPixels"/></IconStyle></Style><Point><coordinates>39.023890342405544,56.0105810471627</coordinates></Point></Placemark><Placemark><name><![CDATA[2 Загрязье]]></name><description><![CDATA[болото со стороны Барсково, торфоразработки]]></description><Style><IconStyle><color>ffff981e</color><Icon><href>https://api-maps.yandex.ru/i/0.4/micro/pmbls.png</href></Icon><hotSpot x="7" y="28" xunits="pixels" yunits="insetPixels"/></IconStyle></Style><Point><coordinates>39.02796730010817,56.00555595827354</coordinates></Point></Placemark><Placemark><name><![CDATA[23 Барсковские отруба]]></name><description><![CDATA[давались в 1918 г. по едокам]]></description><Style><IconStyle><color>ffff981e</color><Icon><href>https://api-maps.yandex.ru/i/0.4/micro/pmbls.png</href></Icon><hotSpot x="7" y="28" xunits="pixels" yunits="insetPixels"/></IconStyle></Style><Point><coordinates>39.006123389890895,56.01142250506618</coordinates></Point></Placemark><Placemark><name><![CDATA[123 Кривая береза]]></name><description><![CDATA[такое же ритуальное место, где оставляли горшочки, из которых обмывали покойника, по дороге к Аргуновской церкви жители левобережных деревень. Это место по левую сторону дороги от Цепнино к Аргуново, сразу после поворота дороги к церкви]]></description><Style><IconStyle><color>ffff981e</color><Icon><href>https://api-maps.yandex.ru/i/0.4/micro/pmbls.png</href></Icon><hotSpot x="7" y="28" xunits="pixels" yunits="insetPixels"/></IconStyle></Style><Point><coordinates>39.008397903135105,56.00166046153786</coordinates></Point></Placemark><Placemark><name><![CDATA[24 Бараши]]></name><description><![CDATA[Барашево, лес по болоту, раньше пустошь – лес, пашня, сенокос (возможно, по названию болотной птицы из семейства куликов, бекасов, в народе «барашек, баранчик» из-за блеянья. В. Даль. Т. 1. С. 120)]]></description><Style><IconStyle><color>ffff981e</color><Icon><href>https://api-maps.yandex.ru/i/0.4/micro/pmbls.png</href></Icon><hotSpot x="7" y="28" xunits="pixels" yunits="insetPixels"/></IconStyle></Style><Point><coordinates>39.010307635953595,55.99581647689262</coordinates></Point></Placemark><Placemark><name><![CDATA[143	Протомоя]]></name><description><![CDATA[Протомойка, ручей от Цепнино в сторону Барскова, покос по болоту, трава хорошая. Покос Протомой означает мокрый, это объясняется словом «портомой» – мокрые порты]]></description><Style><IconStyle><color>ffff981e</color><Icon><href>https://api-maps.yandex.ru/i/0.4/micro/pmbls.png</href></Icon><hotSpot x="7" y="28" xunits="pixels" yunits="insetPixels"/></IconStyle></Style><Point><coordinates>39.01916965453875,55.99465599206945</coordinates></Point></Placemark><Placemark><name><![CDATA[142 Большой луг]]></name><description><![CDATA[от Цепнина в сторону Барскова]]></description><Style><IconStyle><color>ffff981e</color><Icon><href>https://api-maps.yandex.ru/i/0.4/micro/pmbls.png</href></Icon><hotSpot x="7" y="28" xunits="pixels" yunits="insetPixels"/></IconStyle></Style><Point><coordinates>39.0202425381436,56.00128171072748</coordinates></Point></Placemark><Placemark><name><![CDATA[141Малый луг]]></name><description><![CDATA[от Цепнина в сторону Барскова]]></description><Style><IconStyle><color>ffff981e</color><Icon><href>https://api-maps.yandex.ru/i/0.4/micro/pmbls.png</href></Icon><hotSpot x="7" y="28" xunits="pixels" yunits="insetPixels"/></IconStyle></Style><Point><coordinates>39.01824697463737,56.00518926900142</coordinates></Point></Placemark><Placemark><name><![CDATA[162 Гора]]></name><description><![CDATA[ур. за д. Цепнино по дороге в Панфилово]]></description><Style><IconStyle><color>ffff981e</color><Icon><href>https://api-maps.yandex.ru/i/0.4/micro/pmbls.png</href></Icon><hotSpot x="7" y="28" xunits="pixels" yunits="insetPixels"/></IconStyle></Style><Point><coordinates>39.03288110702318,55.99423508215946</coordinates></Point></Placemark><Placemark><name><![CDATA[114 Александровская ж/д]]></name><description/><Style><IconStyle><color>ffff981e</color><Icon><href>https://api-maps.yandex.ru/i/0.4/micro/pmbls.png</href></Icon><hotSpot x="7" y="28" xunits="pixels" yunits="insetPixels"/></IconStyle></Style><Point><coordinates>38.87803227000793,56.02494894221396</coordinates></Point></Placemark><Placemark><name><![CDATA[115 Среднее поле]]></name><description><![CDATA[В сторону Санино]]></description><Style><IconStyle><color>ffff981e</color><Icon><href>https://api-maps.yandex.ru/i/0.4/micro/pmbls.png</href></Icon><hotSpot x="7" y="28" xunits="pixels" yunits="insetPixels"/></IconStyle></Style><Point><coordinates>38.94023806148052,55.98812487811125</coordinates></Point></Placemark><Placemark><name><![CDATA[116 Заднее поле]]></name><description><![CDATA[В сторону Лачуг.<br/>Здесь в 1918 г довали отруба по количеству едоков]]></description><Style><IconStyle><color>ffff981e</color><Icon><href>https://api-maps.yandex.ru/i/0.4/micro/pmbls.png</href></Icon><hotSpot x="7" y="28" xunits="pixels" yunits="insetPixels"/></IconStyle></Style><Point><coordinates>38.94719034724625,55.98349382856302</coordinates></Point></Placemark><Placemark><name><![CDATA[Бараши, Барашово]]></name><description><![CDATA[Лес по болоту, раньше пустошь — лес, пашня, сенокос (возможно по названию болотной птицы из семейства куликов, бекасов, в народе "барашек, баранчик" из-за блеянья В. Даль]]></description><Style><IconStyle><color>ffff981e</color><Icon><href>https://api-maps.yandex.ru/i/0.4/micro/pmbls.png</href></Icon><hotSpot x="7" y="28" xunits="pixels" yunits="insetPixels"/></IconStyle></Style><Point><coordinates>39.00642425113245,55.99829894812822</coordinates></Point></Placemark><Placemark><name><![CDATA[185 Два родника]]></name><description/><Style><IconStyle><color>ffff981e</color><Icon><href>https://api-maps.yandex.ru/i/0.4/micro/pmbls.png</href></Icon><hotSpot x="7" y="28" xunits="pixels" yunits="insetPixels"/></IconStyle></Style><Point><coordinates>38.977198115228326,56.02403712708044</coordinates></Point></Placemark><Placemark><name><![CDATA[183 Лавы через р. Молодынь]]></name><description><![CDATA[Лавы чуть ниже бывшей мельницы. А ниже лав р. Маленькая, которая заросла, но следы ее еще видны в половодье ниже учтья р. Молодыни. От лав идет дорога к с. Ильинскому, к церкви и кладбищу. Здесь же Ильинский омут]]></description><Style><IconStyle><color>ffff981e</color><Icon><href>https://api-maps.yandex.ru/i/0.4/micro/pmbls.png</href></Icon><hotSpot x="7" y="28" xunits="pixels" yunits="insetPixels"/></IconStyle></Style><Point><coordinates>38.966699949144605,56.0185540932175</coordinates></Point></Placemark><Placemark><name><![CDATA[179 Курманка, старица Киржача]]></name><description/><Style><IconStyle><color>ffff981e</color><Icon><href>https://api-maps.yandex.ru/i/0.4/micro/pmbls.png</href></Icon><hotSpot x="7" y="28" xunits="pixels" yunits="insetPixels"/></IconStyle></Style><Point><coordinates>38.96960746371611,56.0124632520292</coordinates></Point></Placemark><Placemark><name><![CDATA[52 Мельница Курманка]]></name><description><![CDATA[Бывшая мельница Курманка, располагалась в 300-400 м от устья р. Молодыни, притока р. Киржач. Здесь же Верхний и Нижний омут, выше и ниже плотины, отсюда и названия. Курман — старинное имя.]]></description><Style><IconStyle><color>ffff981e</color><Icon><href>https://api-maps.yandex.ru/i/0.4/micro/pmbls.png</href></Icon><hotSpot x="7" y="28" xunits="pixels" yunits="insetPixels"/></IconStyle></Style><Point><coordinates>38.967643101129845,56.01953378233812</coordinates></Point></Placemark><Placemark><name><![CDATA[189 Наполдни]]></name><description><![CDATA[Место отдыха и дойки коров в летний день]]></description><Style><IconStyle><color>ffff981e</color><Icon><href>https://api-maps.yandex.ru/i/0.4/micro/pmbls.png</href></Icon><hotSpot x="7" y="28" xunits="pixels" yunits="insetPixels"/></IconStyle></Style><Point><coordinates>38.96398555362218,56.02435557087325</coordinates></Point></Placemark><Placemark><name><![CDATA[190 Конная порубка]]></name><description><![CDATA[Расположена в 400 м за Садовой прудкой. Прудка, выложенная камнями, к которой вели две сохранившиеся липовые аллеи от исчезнувшего барсокого дома, ликвидирована в 1930-ые, когда камень увезли для хоз.нужд]]></description><Style><IconStyle><color>ffff981e</color><Icon><href>https://api-maps.yandex.ru/i/0.4/micro/pmbls.png</href></Icon><hotSpot x="7" y="28" xunits="pixels" yunits="insetPixels"/></IconStyle></Style><Point><coordinates>38.971324077486926,56.02437960417381</coordinates></Point></Placemark><Placemark><name><![CDATA[164 Сеча, луг]]></name><description><![CDATA[Луг у д. Старое Сельцо]]></description><Style><IconStyle><color>ffff981e</color><Icon><href>https://api-maps.yandex.ru/i/0.4/micro/pmbls.png</href></Icon><hotSpot x="7" y="28" xunits="pixels" yunits="insetPixels"/></IconStyle></Style><Point><coordinates>38.96523009860507,56.027768149169844</coordinates></Point></Placemark><Placemark><name><![CDATA[167 р. Молодынь (Молодань, Маловань, Моловань)]]></name><description><![CDATA[В Старом Сельце речку зовут Ильинской, а в с. Ильинском — Старосельской. Часть реки от мельницы до устья раньше называли Маленькой речкой]]></description><Style><IconStyle><color>ffff981e</color><Icon><href>https://api-maps.yandex.ru/i/0.4/micro/pmbls.png</href></Icon><hotSpot x="7" y="28" xunits="pixels" yunits="insetPixels"/></IconStyle></Style><Point><coordinates>38.971731773256344,56.034592396553435</coordinates></Point></Placemark><Placemark><name><![CDATA[165 Гладыши (Гладкий) луг]]></name><description/><Style><IconStyle><color>ffff981e</color><Icon><href>https://api-maps.yandex.ru/i/0.4/micro/pmbls.png</href></Icon><hotSpot x="7" y="28" xunits="pixels" yunits="insetPixels"/></IconStyle></Style><Point><coordinates>38.983039966463494,56.036286256535014</coordinates></Point></Placemark><Placemark><name><![CDATA[186 Часовня]]></name><description><![CDATA[Современная часовня восстановленная там же М.И и Е.А. Ефимовыми, и рядом с ней следы Каменицы]]></description><Style><IconStyle><color>ffff981e</color><Icon><href>https://api-maps.yandex.ru/i/0.4/micro/pmbls.png</href></Icon><hotSpot x="7" y="28" xunits="pixels" yunits="insetPixels"/></IconStyle></Style><Point><coordinates>38.981580844758355,56.02483623276952</coordinates></Point></Placemark><Placemark><name><![CDATA[177 Александров отруб]]></name><description><![CDATA[Тетки Татьяны отруб, Коротков отруб (давали в 1918 г., хотя некоторые думают, что в Столыпинскую реформу). Это место называлось Синие камни, в сторону Гладышей]]></description><Style><IconStyle><color>ffff981e</color><Icon><href>https://api-maps.yandex.ru/i/0.4/micro/pmbls.png</href></Icon><hotSpot x="7" y="28" xunits="pixels" yunits="insetPixels"/></IconStyle></Style><Point><coordinates>38.98784648501866,56.03017119154111</coordinates></Point></Placemark><Placemark><name><![CDATA[173 Новая угольница]]></name><description><![CDATA[Здесь жгли уголь для промышленности, был своего рода местный промысел в последнюю войну и после нее]]></description><Style><IconStyle><color>ffff981e</color><Icon><href>https://api-maps.yandex.ru/i/0.4/micro/pmbls.png</href></Icon><hotSpot x="7" y="28" xunits="pixels" yunits="insetPixels"/></IconStyle></Style><Point><coordinates>38.98986350619786,56.03531319758904</coordinates></Point></Placemark><Placemark><name><![CDATA[191Чухомский (Чухонский) омут]]></name><description><![CDATA[Омут на р. Молодынь]]></description><Style><IconStyle><color>ffff981e</color><Icon><href>https://api-maps.yandex.ru/i/0.4/micro/pmbls.png</href></Icon><hotSpot x="7" y="28" xunits="pixels" yunits="insetPixels"/></IconStyle></Style><Point><coordinates>38.984971156953456,56.041103136935774</coordinates></Point></Placemark><Placemark><name><![CDATA[171 Горелая порубка, лес]]></name><description/><Style><IconStyle><color>ffff981e</color><Icon><href>https://api-maps.yandex.ru/i/0.4/micro/pmbls.png</href></Icon><hotSpot x="7" y="28" xunits="pixels" yunits="insetPixels"/></IconStyle></Style><Point><coordinates>38.99296413981887,56.042598530396035</coordinates></Point></Placemark><Placemark><name><![CDATA[172 Сорокарублевая порубка, лес]]></name><description><![CDATA[Существует предание, что старосельские мужики выкупили её у барина за 40 рулей]]></description><Style><IconStyle><color>ffff981e</color><Icon><href>https://api-maps.yandex.ru/i/0.4/micro/pmbls.png</href></Icon><hotSpot x="7" y="28" xunits="pixels" yunits="insetPixels"/></IconStyle></Style><Point><coordinates>38.991505018114644,56.03839446713502</coordinates></Point></Placemark><Placemark><name><![CDATA[192 Круглый омут на р. Молодыни]]></name><description/><Style><IconStyle><color>ffff981e</color><Icon><href>https://api-maps.yandex.ru/i/0.4/micro/pmbls.png</href></Icon><hotSpot x="7" y="28" xunits="pixels" yunits="insetPixels"/></IconStyle></Style><Point><coordinates>38.967086187240604,56.01917604207384</coordinates></Point></Placemark><Placemark><name><![CDATA[178 Заболонье]]></name><description><![CDATA[Луг в междуречье Киржача и Молодыни. Принадлжеал Старому сельцу. Болонье — низменная луговая равнина у реки или озера; выгон, толока, поскотина (В. Даль. т. 1 с. 242)]]></description><Style><IconStyle><color>ffff981e</color><Icon><href>https://api-maps.yandex.ru/i/0.4/micro/pmbls.png</href></Icon><hotSpot x="7" y="28" xunits="pixels" yunits="insetPixels"/></IconStyle></Style><Point><coordinates>38.948975911974124,56.023712674117725</coordinates></Point></Placemark><Placemark><name><![CDATA[135 Каменка]]></name><description><![CDATA[ПУстошь, болото]]></description><Style><IconStyle><color>ffff981e</color><Icon><href>https://api-maps.yandex.ru/i/0.4/micro/pmbls.png</href></Icon><hotSpot x="7" y="28" xunits="pixels" yunits="insetPixels"/></IconStyle></Style><Point><coordinates>38.938332906603186,56.01635765531496</coordinates></Point></Placemark><Placemark><name><![CDATA[14 Старый Киржач, Старая река]]></name><description/><Style><IconStyle><color>ffff981e</color><Icon><href>https://api-maps.yandex.ru/i/0.4/micro/pmbls.png</href></Icon><hotSpot x="7" y="28" xunits="pixels" yunits="insetPixels"/></IconStyle></Style><Point><coordinates>38.9141286524533,56.03649648238718</coordinates></Point></Placemark><Placemark><name><![CDATA[180 граница Петушинского и Киржачского районов Владимирской области]]></name><description/><Style><IconStyle><color>ffff981e</color><Icon><href>https://api-maps.yandex.ru/i/0.4/micro/pmbls.png</href></Icon><hotSpot x="7" y="28" xunits="pixels" yunits="insetPixels"/></IconStyle></Style><Point><coordinates>38.921120060208686,56.01060463347032</coordinates></Point></Placemark><Placemark><name><![CDATA[39 Трубы, лес]]></name><description/><Style><IconStyle><color>ffff981e</color><Icon><href>https://api-maps.yandex.ru/i/0.4/micro/pmbls.png</href></Icon><hotSpot x="7" y="28" xunits="pixels" yunits="insetPixels"/></IconStyle></Style><Point><coordinates>38.93064726662957,56.01125375936346</coordinates></Point></Placemark><Placemark><name><![CDATA[14 Старый Киржач, Старая река]]></name><description><![CDATA[Имеет выятнутую форму, старица р. Киржач]]></description><Style><IconStyle><color>ffff981e</color><Icon><href>https://api-maps.yandex.ru/i/0.4/micro/pmbls.png</href></Icon><hotSpot x="7" y="28" xunits="pixels" yunits="insetPixels"/></IconStyle></Style><Point><coordinates>38.93792141747797,56.00610853496478</coordinates></Point></Placemark><Placemark><name><![CDATA[54 Догадка, озеро]]></name><description><![CDATA[Бывшая старица (озеро до "гати")]]></description><Style><IconStyle><color>ffff981e</color><Icon><href>https://api-maps.yandex.ru/i/0.4/micro/pmbls.png</href></Icon><hotSpot x="7" y="28" xunits="pixels" yunits="insetPixels"/></IconStyle></Style><Point><coordinates>38.94723404717732,56.01365783364581</coordinates></Point></Placemark><Placemark><name><![CDATA[43 оз. Неверово]]></name><description><![CDATA[Отсоединилось от оз. Догадка в сторону с. Санино<br/>заводка]]></description><Style><IconStyle><color>ffff981e</color><Icon><href>https://api-maps.yandex.ru/i/0.4/micro/pmbls.png</href></Icon><hotSpot x="7" y="28" xunits="pixels" yunits="insetPixels"/></IconStyle></Style><Point><coordinates>38.95661104989242,56.003619825832544</coordinates></Point></Placemark><Placemark><name><![CDATA[38 Селепено, лес]]></name><description><![CDATA[Сосоновый строевой лес для изб]]></description><Style><IconStyle><color>ffff981e</color><Icon><href>https://api-maps.yandex.ru/i/0.4/micro/pmbls.png</href></Icon><hotSpot x="7" y="28" xunits="pixels" yunits="insetPixels"/></IconStyle></Style><Point><coordinates>38.95577420068104,56.00945060479746</coordinates></Point></Placemark><Placemark><name><![CDATA[55 Осик (Осек)]]></name><description><![CDATA[Заливной луг у оз. Догадка]]></description><Style><IconStyle><color>ffff981e</color><Icon><href>https://api-maps.yandex.ru/i/0.4/micro/pmbls.png</href></Icon><hotSpot x="7" y="28" xunits="pixels" yunits="insetPixels"/></IconStyle></Style><Point><coordinates>38.95925034356383,56.006541336906245</coordinates></Point></Placemark><Placemark><name><![CDATA[128 Ляда, лес]]></name><description/><Style><IconStyle><color>ffff981e</color><Icon><href>https://api-maps.yandex.ru/i/0.4/micro/pmbls.png</href></Icon><hotSpot x="7" y="28" xunits="pixels" yunits="insetPixels"/></IconStyle></Style><Point><coordinates>38.96757592034515,55.998774197307306</coordinates></Point></Placemark><Placemark><name><![CDATA[65 Клабыково (от Каблуково)]]></name><description><![CDATA[Луг, круглый как каблук]]></description><Style><IconStyle><color>ffff981e</color><Icon><href>https://api-maps.yandex.ru/i/0.4/micro/pmbls.png</href></Icon><hotSpot x="7" y="28" xunits="pixels" yunits="insetPixels"/></IconStyle></Style><Point><coordinates>38.95834912133448,55.99701855912131</coordinates></Point></Placemark><Placemark><name><![CDATA[37 Клин, луг]]></name><description><![CDATA[Здесь же подвесной мост через оз. Догадка]]></description><Style><IconStyle><color>ffff981e</color><Icon><href>https://api-maps.yandex.ru/i/0.4/micro/pmbls.png</href></Icon><hotSpot x="7" y="28" xunits="pixels" yunits="insetPixels"/></IconStyle></Style><Point><coordinates>38.95186890435528,56.012095202479905</coordinates></Point></Placemark><Placemark><name><![CDATA[166 Долинка]]></name><description><![CDATA[Низинка у Старого Сельца в сторону Воронова]]></description><Style><IconStyle><color>ffff981e</color><Icon><href>https://api-maps.yandex.ru/i/0.4/micro/pmbls.png</href></Icon><hotSpot x="7" y="28" xunits="pixels" yunits="insetPixels"/></IconStyle></Style><Point><coordinates>39.014240242102765,56.01980100531216</coordinates></Point></Placemark><Placemark><name><![CDATA[21 Иванково, луг, лес]]></name><description><![CDATA[Рядом с Мухановской порубкой, левее д. Вороново]]></description><Style><IconStyle><color>ffff981e</color><Icon><href>https://api-maps.yandex.ru/i/0.4/micro/pmbls.png</href></Icon><hotSpot x="7" y="28" xunits="pixels" yunits="insetPixels"/></IconStyle></Style><Point><coordinates>39.00986287698989,56.020425940123076</coordinates></Point></Placemark><Placemark><name><![CDATA[168 Шубара]]></name><description><![CDATA[Болото от р. Молодыни в сторону Воронова. Возможно, название связано с болотной растительностью - шуварой (словарь Даля т.4 с. 1480)]]></description><Style><IconStyle><color>ffff981e</color><Icon><href>https://api-maps.yandex.ru/i/0.4/micro/pmbls.png</href></Icon><hotSpot x="7" y="28" xunits="pixels" yunits="insetPixels"/></IconStyle></Style><Point><coordinates>39.02960393533831,56.03916926564755</coordinates></Point></Placemark><Placemark><name><![CDATA[169 Дунин лес]]></name><description/><Style><IconStyle><color>ffff981e</color><Icon><href>https://api-maps.yandex.ru/i/0.4/micro/pmbls.png</href></Icon><hotSpot x="7" y="28" xunits="pixels" yunits="insetPixels"/></IconStyle></Style><Point><coordinates>38.993018604377184,56.02343087982726</coordinates></Point></Placemark><Placemark><name><![CDATA[170 Захряпин лес]]></name><description><![CDATA[Название либо от глагола "захряпнуть", то есть заглохнуть, порасти сорными травами, стать непроходимим. В. Даль т. 1 с. 1649. Либо от глагола "захрять", залядеть, задернеть. Там же.]]></description><Style><IconStyle><color>ffff981e</color><Icon><href>https://api-maps.yandex.ru/i/0.4/micro/pmbls.png</href></Icon><hotSpot x="7" y="28" xunits="pixels" yunits="insetPixels"/></IconStyle></Style><Point><coordinates>39.01132199869424,56.02591830619052</coordinates></Point></Placemark><Placemark><name><![CDATA[100 Грошев отруб]]></name><description/><Style><IconStyle><color>ffff981e</color><Icon><href>https://api-maps.yandex.ru/i/0.4/micro/pmbls.png</href></Icon><hotSpot x="7" y="28" xunits="pixels" yunits="insetPixels"/></IconStyle></Style><Point><coordinates>38.96653983698306,55.96103583435916</coordinates></Point></Placemark><Placemark><name><![CDATA[105 Лошадиное кладбище]]></name><description><![CDATA[у ж/д станции "пл. 168 км"]]></description><Style><IconStyle><color>ffff981e</color><Icon><href>https://api-maps.yandex.ru/i/0.4/micro/pmbls.png</href></Icon><hotSpot x="7" y="28" xunits="pixels" yunits="insetPixels"/></IconStyle></Style><Point><coordinates>38.96344993219752,55.964117038190906</coordinates></Point></Placemark><Placemark><name><![CDATA[127 Глинищи]]></name><description><![CDATA[Здесь брали глину для печей]]></description><Style><IconStyle><color>ffff981e</color><Icon><href>https://api-maps.yandex.ru/i/0.4/micro/pmbls.png</href></Icon><hotSpot x="7" y="28" xunits="pixels" yunits="insetPixels"/></IconStyle></Style><Point><coordinates>38.96181347487479,55.97546935929849</coordinates></Point></Placemark><Placemark><name><![CDATA[66 Репище, лес]]></name><description/><Style><IconStyle><color>ffff981e</color><Icon><href>https://api-maps.yandex.ru/i/0.4/micro/pmbls.png</href></Icon><hotSpot x="7" y="28" xunits="pixels" yunits="insetPixels"/></IconStyle></Style><Point><coordinates>38.9392456780474,55.98072241385819</coordinates></Point></Placemark><Placemark><name><![CDATA[67 Мочина, лес]]></name><description><![CDATA[Название говорит о низкой, болотистой местности, ср. мочижина]]></description><Style><IconStyle><color>ffff981e</color><Icon><href>https://api-maps.yandex.ru/i/0.4/micro/pmbls.png</href></Icon><hotSpot x="7" y="28" xunits="pixels" yunits="insetPixels"/></IconStyle></Style><Point><coordinates>38.944610096077284,55.97735378617694</coordinates></Point></Placemark><Placemark><name><![CDATA[68 Савина гора]]></name><description/><Style><IconStyle><color>ffff981e</color><Icon><href>https://api-maps.yandex.ru/i/0.4/micro/pmbls.png</href></Icon><hotSpot x="7" y="28" xunits="pixels" yunits="insetPixels"/></IconStyle></Style><Point><coordinates>38.95452354059633,55.97242062106922</coordinates></Point></Placemark><Placemark><name><![CDATA[58 Лачужский лес]]></name><description/><Style><IconStyle><color>ffff981e</color><Icon><href>https://api-maps.yandex.ru/i/0.4/micro/pmbls.png</href></Icon><hotSpot x="7" y="28" xunits="pixels" yunits="insetPixels"/></IconStyle></Style><Point><coordinates>38.956068492987825,55.968882791011524</coordinates></Point></Placemark><Placemark><name><![CDATA[57 Борынь, лес]]></name><description><![CDATA[Сосновый лес сразу за ж/д, до Котятино]]></description><Style><IconStyle><color>ffff981e</color><Icon><href>https://api-maps.yandex.ru/i/0.4/micro/pmbls.png</href></Icon><hotSpot x="7" y="28" xunits="pixels" yunits="insetPixels"/></IconStyle></Style><Point><coordinates>38.94190642938969,55.974345833536745</coordinates></Point></Placemark><Placemark><name><![CDATA[56 Котятино, пустошь, лес]]></name><description/><Style><IconStyle><color>ffff981e</color><Icon><href>https://api-maps.yandex.ru/i/0.4/micro/pmbls.png</href></Icon><hotSpot x="7" y="28" xunits="pixels" yunits="insetPixels"/></IconStyle></Style><Point><coordinates>38.929890133003234,55.97186710438812</coordinates></Point></Placemark><Placemark><name><![CDATA[42 Дровяные, лес]]></name><description/><Style><IconStyle><color>ffff981e</color><Icon><href>https://api-maps.yandex.ru/i/0.4/micro/pmbls.png</href></Icon><hotSpot x="7" y="28" xunits="pixels" yunits="insetPixels"/></IconStyle></Style><Point><coordinates>38.9282593499225,55.98505307387184</coordinates></Point></Placemark><Placemark><name><![CDATA[41 Тимонино, лес]]></name><description/><Style><IconStyle><color>ffff981e</color><Icon><href>https://api-maps.yandex.ru/i/0.4/micro/pmbls.png</href></Icon><hotSpot x="7" y="28" xunits="pixels" yunits="insetPixels"/></IconStyle></Style><Point><coordinates>38.918732143500996,55.98748284140154</coordinates></Point></Placemark><Placemark><name><![CDATA[36 Ноговицы (Ногавицы)]]></name><description><![CDATA[Болото, у В. Даля ноговица — это подколенник, надеваемый на голень для утепления (В. Даль, т. 2 с. 1433)]]></description><Style><IconStyle><color>ffff981e</color><Icon><href>https://api-maps.yandex.ru/i/0.4/micro/pmbls.png</href></Icon><hotSpot x="7" y="28" xunits="pixels" yunits="insetPixels"/></IconStyle></Style><Point><coordinates>38.902553058722724,55.98146828396485</coordinates></Point></Placemark><Placemark><name><![CDATA[35 Добрилово, пустошь, лес]]></name><description/><Style><IconStyle><color>ffff981e</color><Icon><href>https://api-maps.yandex.ru/i/0.4/micro/pmbls.png</href></Icon><hotSpot x="7" y="28" xunits="pixels" yunits="insetPixels"/></IconStyle></Style><Point><coordinates>38.90525672541078,55.97453834978367</coordinates></Point></Placemark><Placemark><name><![CDATA[34 Черная грива, лес]]></name><description><![CDATA[В основном еловый лес, отсюда и название]]></description><Style><IconStyle><color>ffff981e</color><Icon><href>https://api-maps.yandex.ru/i/0.4/micro/pmbls.png</href></Icon><hotSpot x="7" y="28" xunits="pixels" yunits="insetPixels"/></IconStyle></Style><Point><coordinates>38.882468677619805,55.96103583403887</coordinates></Point></Placemark><Placemark><name><![CDATA[48 р. Дубенка]]></name><description><![CDATA[Приток р. Большая Дубна]]></description><Style><IconStyle><color>ffff981e</color><Icon><href>https://api-maps.yandex.ru/i/0.4/micro/pmbls.png</href></Icon><hotSpot x="7" y="28" xunits="pixels" yunits="insetPixels"/></IconStyle></Style><Point><coordinates>38.88854167315662,55.944899898467256</coordinates></Point></Placemark><Placemark><name><![CDATA[50 Каменка, лес]]></name><description/><Style><IconStyle><color>ffff981e</color><Icon><href>https://api-maps.yandex.ru/i/0.4/micro/pmbls.png</href></Icon><hotSpot x="7" y="28" xunits="pixels" yunits="insetPixels"/></IconStyle></Style><Point><coordinates>38.88354156122615,55.95244086059265</coordinates></Point></Placemark><Placemark><name><![CDATA[49 Жилинское болото]]></name><description><![CDATA[Покос]]></description><Style><IconStyle><color>ffff981e</color><Icon><href>https://api-maps.yandex.ru/i/0.4/micro/pmbls.png</href></Icon><hotSpot x="7" y="28" xunits="pixels" yunits="insetPixels"/></IconStyle></Style><Point><coordinates>38.89650199518612,55.95350028862505</coordinates></Point></Placemark><Placemark><name><![CDATA[33 Ковелино (Кавелино)]]></name><description><![CDATA[Пустошь, покос по болоту, возможно от слова "ковыль"]]></description><Style><IconStyle><color>ffff981e</color><Icon><href>https://api-maps.yandex.ru/i/0.4/micro/pmbls.png</href></Icon><hotSpot x="7" y="28" xunits="pixels" yunits="insetPixels"/></IconStyle></Style><Point><coordinates>38.90560004816416,55.96510393460533</coordinates></Point></Placemark><Placemark><name><![CDATA[136 Бордовая лесная сторожка]]></name><description><![CDATA[До Революции здесь проходила дорога из Санино через Теперки, Трусово и Малую Дубну в г. Орехово-Зуево. Лесниками были несколько поколений Гурьяновых]]></description><Style><IconStyle><color>ffff981e</color><Icon><href>https://api-maps.yandex.ru/i/0.4/micro/pmbls.png</href></Icon><hotSpot x="7" y="28" xunits="pixels" yunits="insetPixels"/></IconStyle></Style><Point><coordinates>38.90937659845759,55.95003296132927</coordinates></Point></Placemark><Placemark><name><![CDATA[47 Новая речка]]></name><description><![CDATA[Приток реки Мысовки]]></description><Style><IconStyle><color>ffff981e</color><Icon><href>https://api-maps.yandex.ru/i/0.4/micro/pmbls.png</href></Icon><hotSpot x="7" y="28" xunits="pixels" yunits="insetPixels"/></IconStyle></Style><Point><coordinates>38.91023453550244,55.95630496179129</coordinates></Point></Placemark><Placemark><name><![CDATA[101 Синий камень]]></name><description><![CDATA[Поля и покосы, пастбище. Там же торфоразработки в 1940-70-ые годы. Торф шел по узкоколейке в Электрогорск на завод "Клаксон" и теплоэлектроцентраль]]></description><Style><IconStyle><color>ffff981e</color><Icon><href>https://api-maps.yandex.ru/i/0.4/micro/pmbls.png</href></Icon><hotSpot x="7" y="28" xunits="pixels" yunits="insetPixels"/></IconStyle></Style><Point><coordinates>38.93744323358944,55.94781756119308</coordinates></Point></Placemark><Placemark><name><![CDATA[109 Запикулино, мокрый покос по болоту]]></name><description><![CDATA[У Даля "пикуля" (пикулька) - дудочка, свисток для приманки диких коз (т. 3 с. 277), может быть рядом было пастбище для коз.]]></description><Style><IconStyle><color>ffff981e</color><Icon><href>https://api-maps.yandex.ru/i/0.4/micro/pmbls.png</href></Icon><hotSpot x="7" y="28" xunits="pixels" yunits="insetPixels"/></IconStyle></Style><Point><coordinates>38.918045497993745,55.94271202407587</coordinates></Point></Placemark><Placemark><name><![CDATA[Будилов проулок]]></name><description/><Style><IconStyle><color>ff40db56</color><Icon><href>https://api-maps.yandex.ru/i/0.4/micro/pmgns.png</href></Icon><hotSpot x="7" y="28" xunits="pixels" yunits="insetPixels"/></IconStyle></Style><Point><coordinates>38.97403929338672,55.965019687751884</coordinates></Point></Placemark><Placemark><name><![CDATA[130]]></name><description/><Style><IconStyle><color>ffff981e</color><Icon><href>https://api-maps.yandex.ru/i/0.4/micro/pmbls.png</href></Icon><hotSpot x="7" y="28" xunits="pixels" yunits="insetPixels"/></IconStyle></Style><Point><coordinates>38.91360141512099,55.93898647141528</coordinates></Point></Placemark><Placemark><name><![CDATA[47 Новая речка]]></name><description><![CDATA[Приток реки Мысовка]]></description><Style><IconStyle><color>ffff981e</color><Icon><href>https://api-maps.yandex.ru/i/0.4/micro/pmbls.png</href></Icon><hotSpot x="7" y="28" xunits="pixels" yunits="insetPixels"/></IconStyle></Style><Point><coordinates>38.90729285951793,55.94303281515656</coordinates></Point></Placemark><Placemark><name><![CDATA[110 Сухой Дор, болотистый покос]]></name><description><![CDATA[Телеги с сеном оказывались в бродказ, в глубокой вящкой водянистой колее. У В. Даля бродный путь или убродный, значит вязкий, топкий, болотистый (т.1 с. 316)]]></description><Style><IconStyle><color>ffff981e</color><Icon><href>https://api-maps.yandex.ru/i/0.4/micro/pmbls.png</href></Icon><hotSpot x="7" y="28" xunits="pixels" yunits="insetPixels"/></IconStyle></Style><Point><coordinates>38.92624654825222,55.94209128217469</coordinates></Point></Placemark><Placemark><name><![CDATA[134 граница Московской и Владимирской  обл.]]></name><description/><Style><IconStyle><color>ffff981e</color><Icon><href>https://api-maps.yandex.ru/i/0.4/micro/pmbls.png</href></Icon><hotSpot x="7" y="28" xunits="pixels" yunits="insetPixels"/></IconStyle></Style><Point><coordinates>38.929937267856396,55.93414251065261</coordinates></Point></Placemark><Placemark><name><![CDATA[125 Узкоколейка]]></name><description><![CDATA[Узкоколейка для транспорта торфа от разработок в Цепнино, Гнездино, Ветчи, Ляпино к г. Электрогорску. Сейчас разрушена и заросла, осталась лишь насыпь]]></description><Style><IconStyle><color>ffff981e</color><Icon><href>https://api-maps.yandex.ru/i/0.4/micro/pmbls.png</href></Icon><hotSpot x="7" y="28" xunits="pixels" yunits="insetPixels"/></IconStyle></Style><Point><coordinates>38.96922626550684,55.94165775478525</coordinates></Point></Placemark><Placemark><name><![CDATA[31 Высоцкое болото]]></name><description/><Style><IconStyle><color>ffff981e</color><Icon><href>https://api-maps.yandex.ru/i/0.4/micro/pmbls.png</href></Icon><hotSpot x="7" y="28" xunits="pixels" yunits="insetPixels"/></IconStyle></Style><Point><coordinates>38.99104871805076,55.94685975823431</coordinates></Point></Placemark><Placemark><name><![CDATA[74 Керники]]></name><description><![CDATA[Поля гречи и картофеля]]></description><Style><IconStyle><color>ffff981e</color><Icon><href>https://api-maps.yandex.ru/i/0.4/micro/pmbls.png</href></Icon><hotSpot x="7" y="28" xunits="pixels" yunits="insetPixels"/></IconStyle></Style><Point><coordinates>38.99126329477243,55.95165172401812</coordinates></Point></Placemark><Placemark><name><![CDATA[97 Большие полосы, Заполоски лес]]></name><description/><Style><IconStyle><color>ffff981e</color><Icon><href>https://api-maps.yandex.ru/i/0.4/micro/pmbls.png</href></Icon><hotSpot x="7" y="28" xunits="pixels" yunits="insetPixels"/></IconStyle></Style><Point><coordinates>38.978088284091946,55.959741330021856</coordinates></Point></Placemark><Placemark><name><![CDATA[84 Высоково (Высоцкое болото)]]></name><description><![CDATA[Торфяное болото, торфоразработки]]></description><Style><IconStyle><color>ffff981e</color><Icon><href>https://api-maps.yandex.ru/i/0.4/micro/pmbls.png</href></Icon><hotSpot x="7" y="28" xunits="pixels" yunits="insetPixels"/></IconStyle></Style><Point><coordinates>38.96399059350832,55.94617342193266</coordinates></Point></Placemark><Placemark><name><![CDATA[98 Чистое болото]]></name><description><![CDATA[По-видимому без растительности]]></description><Style><IconStyle><color>ffff981e</color><Icon><href>https://api-maps.yandex.ru/i/0.4/micro/pmbls.png</href></Icon><hotSpot x="7" y="28" xunits="pixels" yunits="insetPixels"/></IconStyle></Style><Point><coordinates>38.97023477609626,55.956948681756664</coordinates></Point></Placemark><Placemark><name><![CDATA[99 Егорьевские карьеры]]></name><description><![CDATA[В советское время здесь были торфоразработки]]></description><Style><IconStyle><color>ffff981e</color><Icon><href>https://api-maps.yandex.ru/i/0.4/micro/pmbls.png</href></Icon><hotSpot x="7" y="28" xunits="pixels" yunits="insetPixels"/></IconStyle></Style><Point><coordinates>38.979976559236725,55.95622641120176</coordinates></Point></Placemark><Placemark><name><![CDATA[81 Тележник]]></name><description><![CDATA[Большое поле от ж/д станции до д. Ветчи и в сторону Лачуг]]></description><Style><IconStyle><color>ffff981e</color><Icon><href>https://api-maps.yandex.ru/i/0.4/micro/pmbls.png</href></Icon><hotSpot x="7" y="28" xunits="pixels" yunits="insetPixels"/></IconStyle></Style><Point><coordinates>38.995082760409744,55.95704498323948</coordinates></Point></Placemark><Placemark><name><![CDATA[71 Сватилово (Сватьевское)]]></name><description><![CDATA[Болото у д. Ветчи. Бывшие торфоразработки в 1980-ые годы]]></description><Style><IconStyle><color>ffff981e</color><Icon><href>https://api-maps.yandex.ru/i/0.4/micro/pmbls.png</href></Icon><hotSpot x="7" y="28" xunits="pixels" yunits="insetPixels"/></IconStyle></Style><Point><coordinates>38.99478235300067,55.95815243437928</coordinates></Point></Placemark><Placemark><name><![CDATA[102 Выпасок]]></name><description><![CDATA[Сюда пригоняли скотину на полдник]]></description><Style><IconStyle><color>ffff981e</color><Icon><href>https://api-maps.yandex.ru/i/0.4/micro/pmbls.png</href></Icon><hotSpot x="7" y="28" xunits="pixels" yunits="insetPixels"/></IconStyle></Style><Point><coordinates>38.98864545877461,55.961715321363364</coordinates></Point></Placemark><Placemark><name><![CDATA[89 Каменка (Камушка)]]></name><description><![CDATA[Исчезнувшая улица д. Лачуги. Дорога через ручей засыпана камнем при Баскаковых]]></description><Style><IconStyle><color>ffff981e</color><Icon><href>https://api-maps.yandex.ru/i/0.4/micro/pmbls.png</href></Icon><hotSpot x="7" y="28" xunits="pixels" yunits="insetPixels"/></IconStyle></Style><Point><coordinates>38.98439683969503,55.96547044029428</coordinates></Point></Placemark><Placemark><name><![CDATA[72 Лисья грива]]></name><description><![CDATA[Смешанный лес у д. Ветчи. В норах в Первую мировую тут прятались дезертиры]]></description><Style><IconStyle><color>ffff981e</color><Icon><href>https://api-maps.yandex.ru/i/0.4/micro/pmbls.png</href></Icon><hotSpot x="7" y="28" xunits="pixels" yunits="insetPixels"/></IconStyle></Style><Point><coordinates>38.99774351175313,55.96159495892223</coordinates></Point></Placemark><Placemark><name><![CDATA[80 Аргуновское поле]]></name><description><![CDATA[Поле у д. Ветчи - овес, рожь, греча]]></description><Style><IconStyle><color>ffff981e</color><Icon><href>https://api-maps.yandex.ru/i/0.4/micro/pmbls.png</href></Icon><hotSpot x="7" y="28" xunits="pixels" yunits="insetPixels"/></IconStyle></Style><Point><coordinates>38.99885931070333,55.96515752768508</coordinates></Point></Placemark><Placemark><name><![CDATA[96 Заречная грива]]></name><description><![CDATA[По отношению к р. Лачужке]]></description><Style><IconStyle><color>ffff981e</color><Icon><href>https://api-maps.yandex.ru/i/0.4/micro/pmbls.png</href></Icon><hotSpot x="7" y="28" xunits="pixels" yunits="insetPixels"/></IconStyle></Style><Point><coordinates>38.991477871494325,55.96636102378794</coordinates></Point></Placemark><Placemark><name><![CDATA[163 Ручей]]></name><description><![CDATA[Низинка по дороге от д. Цепнино к Панфилову, всегда заболочена]]></description><Style><IconStyle><color>ffff981e</color><Icon><href>https://api-maps.yandex.ru/i/0.4/micro/pmbls.png</href></Icon><hotSpot x="7" y="28" xunits="pixels" yunits="insetPixels"/></IconStyle></Style><Point><coordinates>39.04070177133554,55.996027347099464</coordinates></Point></Placemark><Placemark><name><![CDATA[144 ьольшое Смолево, поле]]></name><description/><Style><IconStyle><color>ffff981e</color><Icon><href>https://api-maps.yandex.ru/i/0.4/micro/pmbls.png</href></Icon><hotSpot x="7" y="28" xunits="pixels" yunits="insetPixels"/></IconStyle></Style><Point><coordinates>39.05349054391802,55.99855262024226</coordinates></Point></Placemark><Placemark><name><![CDATA[145 Малое Смолево поле]]></name><description><![CDATA[Возможно когда-то здесь был лес и добывали смолу из деревьев]]></description><Style><IconStyle><color>ffff981e</color><Icon><href>https://api-maps.yandex.ru/i/0.4/micro/pmbls.png</href></Icon><hotSpot x="7" y="28" xunits="pixels" yunits="insetPixels"/></IconStyle></Style><Point><coordinates>39.053233051852864,55.99463236300889</coordinates></Point></Placemark><Placemark><name><![CDATA[154 Омшарка, покос по болоту]]></name><description/><Style><IconStyle><color>ffff981e</color><Icon><href>https://api-maps.yandex.ru/i/0.4/micro/pmbls.png</href></Icon><hotSpot x="7" y="28" xunits="pixels" yunits="insetPixels"/></IconStyle></Style><Point><coordinates>39.04739656503658,55.991770082476584</coordinates></Point></Placemark><Placemark><name><![CDATA[150 Загумны, лес]]></name><description/><Style><IconStyle><color>ffff981e</color><Icon><href>https://api-maps.yandex.ru/i/0.4/micro/pmbls.png</href></Icon><hotSpot x="7" y="28" xunits="pixels" yunits="insetPixels"/></IconStyle></Style><Point><coordinates>39.04319086130124,55.98796941466762</coordinates></Point></Placemark><Placemark><name><![CDATA[157 I-IV Березки]]></name><description><![CDATA[Покос за д. Цепнино, за леском]]></description><Style><IconStyle><color>ffff981e</color><Icon><href>https://api-maps.yandex.ru/i/0.4/micro/pmbls.png</href></Icon><hotSpot x="7" y="28" xunits="pixels" yunits="insetPixels"/></IconStyle></Style><Point><coordinates>39.03160371835689,55.98691093405394</coordinates></Point></Placemark><Placemark><name><![CDATA[6 Усиха]]></name><description><![CDATA[Покос по болоту]]></description><Style><IconStyle><color>ffff981e</color><Icon><href>https://api-maps.yandex.ru/i/0.4/micro/pmbls.png</href></Icon><hotSpot x="7" y="28" xunits="pixels" yunits="insetPixels"/></IconStyle></Style><Point><coordinates>39.0235356336401,55.99066359765393</coordinates></Point></Placemark><Placemark><name><![CDATA[75 Заборка]]></name><description><![CDATA[Поля картофеля, гречи, овса, ржи]]></description><Style><IconStyle><color>ffff981e</color><Icon><href>https://api-maps.yandex.ru/i/0.4/micro/pmbls.png</href></Icon><hotSpot x="7" y="28" xunits="pixels" yunits="insetPixels"/></IconStyle></Style><Point><coordinates>39.006884480075605,55.96631288454746</coordinates></Point></Placemark><Placemark><name><![CDATA[77 Нови, луга, низкое место]]></name><description/><Style><IconStyle><color>ffff981e</color><Icon><href>https://api-maps.yandex.ru/i/0.4/micro/pmbls.png</href></Icon><hotSpot x="7" y="28" xunits="pixels" yunits="insetPixels"/></IconStyle></Style><Point><coordinates>39.01028615871958,55.96437719238574</coordinates></Point></Placemark><Placemark><name><![CDATA[76 Зозерьи (Заозерье)]]></name><description><![CDATA[Низкое место, луга, пруд. Рядом с р. Киржач горка Лимонка, большой печасный холм яркожелтого цвета]]></description><Style><IconStyle><color>ffff981e</color><Icon><href>https://api-maps.yandex.ru/i/0.4/micro/pmbls.png</href></Icon><hotSpot x="7" y="28" xunits="pixels" yunits="insetPixels"/></IconStyle></Style><Point><coordinates>39.01162662561338,55.967829237471925</coordinates></Point></Placemark><Placemark><name><![CDATA[78 Загрива, луга]]></name><description/><Style><IconStyle><color>ffff981e</color><Icon><href>https://api-maps.yandex.ru/i/0.4/micro/pmbls.png</href></Icon><hotSpot x="7" y="28" xunits="pixels" yunits="insetPixels"/></IconStyle></Style><Point><coordinates>39.017634773807046,55.96705903406274</coordinates></Point></Placemark><Placemark><name><![CDATA[70 Грива, смешанный лес]]></name><description><![CDATA[Перед ним, ближе к д. Ветчи, заливные луга]]></description><Style><IconStyle><color>ffff981e</color><Icon><href>https://api-maps.yandex.ru/i/0.4/micro/pmbls.png</href></Icon><hotSpot x="7" y="28" xunits="pixels" yunits="insetPixels"/></IconStyle></Style><Point><coordinates>39.014822598169665,55.964901597200836</coordinates></Point></Placemark><Placemark><name><![CDATA[78 Загрива, луга]]></name><description/><Style><IconStyle><color>ffff981e</color><Icon><href>https://api-maps.yandex.ru/i/0.4/micro/pmbls.png</href></Icon><hotSpot x="7" y="28" xunits="pixels" yunits="insetPixels"/></IconStyle></Style><Point><coordinates>39.01939430292095,55.96326796274876</coordinates></Point></Placemark><Placemark><name><![CDATA[79 Тройные сараи]]></name><description><![CDATA[Большие бревенчатые, размером с дом, колхозные сенные сараи]]></description><Style><IconStyle><color>ff4345ed</color><Icon><href>https://api-maps.yandex.ru/i/0.4/micro/pmrds.png</href></Icon><hotSpot x="7" y="28" xunits="pixels" yunits="insetPixels"/></IconStyle></Style><Point><coordinates>39.03297700937139,55.9595246655981</coordinates></Point></Placemark><Placemark><name><![CDATA[73 Детярка (Дегтярка)]]></name><description><![CDATA[лес, болото, торфоразработки, возможно когда-то здесь добывали деготь]]></description><Style><IconStyle><color>ffff981e</color><Icon><href>https://api-maps.yandex.ru/i/0.4/micro/pmbls.png</href></Icon><hotSpot x="7" y="28" xunits="pixels" yunits="insetPixels"/></IconStyle></Style><Point><coordinates>39.033792400912525,55.95588934756957</coordinates></Point></Placemark><Placemark><name><![CDATA[85 Хованка, луг]]></name><description><![CDATA[Луг д. Олехово и Панфилово, жителей этих деревнь называли "хованскими", так как деревни в старину принадлежали кньзьям Хованским]]></description><Style><IconStyle><color>ff4345ed</color><Icon><href>https://api-maps.yandex.ru/i/0.4/micro/pmrds.png</href></Icon><hotSpot x="7" y="28" xunits="pixels" yunits="insetPixels"/></IconStyle></Style><Point><coordinates>39.04327669198966,55.962028261779466</coordinates></Point></Placemark><Placemark><name><![CDATA[83 Липовик]]></name><description><![CDATA[Небольшой круглый луг на левом берегу р. Киржач]]></description><Style><IconStyle><color>ffff981e</color><Icon><href>https://api-maps.yandex.ru/i/0.4/micro/pmbls.png</href></Icon><hotSpot x="7" y="28" xunits="pixels" yunits="insetPixels"/></IconStyle></Style><Point><coordinates>39.04816904123284,55.964772400869016</coordinates></Point></Placemark><Placemark><name><![CDATA[82 Березовик, луг]]></name><description/><Style><IconStyle><color>ffff981e</color><Icon><href>https://api-maps.yandex.ru/i/0.4/micro/pmbls.png</href></Icon><hotSpot x="7" y="28" xunits="pixels" yunits="insetPixels"/></IconStyle></Style><Point><coordinates>39.031775379733,55.96603608284466</coordinates></Point></Placemark><Placemark><name><![CDATA[159 Загрязье]]></name><description><![CDATA[Болото и торфоразработки со стороны д. Цепнино]]></description><Style><IconStyle><color>ffff981e</color><Icon><href>https://api-maps.yandex.ru/i/0.4/micro/pmbls.png</href></Icon><hotSpot x="7" y="28" xunits="pixels" yunits="insetPixels"/></IconStyle></Style><Point><coordinates>39.02621351205363,55.99986476706633</coordinates></Point></Placemark><Placemark><name><![CDATA[125 Узкоколейка]]></name><description><![CDATA[Узкоколейка для транспорта торфа от разработок в Цепнино, Гнездино, Ветчи, Ляпино к г. Электрогорску. Сейчас разрушена и заросла, соталась лишь насыпь]]></description><Style><IconStyle><color>ffff981e</color><Icon><href>https://api-maps.yandex.ru/i/0.4/micro/pmbls.png</href></Icon><hotSpot x="7" y="28" xunits="pixels" yunits="insetPixels"/></IconStyle></Style><Point><coordinates>39.06560445673687,55.97735885048604</coordinates></Point></Placemark><Placemark><name><![CDATA[147 Паленов отруб]]></name><description/><Style><IconStyle><color>ffff981e</color><Icon><href>https://api-maps.yandex.ru/i/0.4/micro/pmbls.png</href></Icon><hotSpot x="7" y="28" xunits="pixels" yunits="insetPixels"/></IconStyle></Style><Point><coordinates>39.06104364450431,55.98205117230208</coordinates></Point></Placemark><Placemark><name><![CDATA[161 Цепнинский луг]]></name><description><![CDATA[от д. Цепнино до Ездового брода]]></description><Style><IconStyle><color>ffff981e</color><Icon><href>https://api-maps.yandex.ru/i/0.4/micro/pmbls.png</href></Icon><hotSpot x="7" y="28" xunits="pixels" yunits="insetPixels"/></IconStyle></Style><Point><coordinates>39.03241910989614,55.97149952798034</coordinates></Point></Placemark><Placemark><name><![CDATA[152 Зарослое, урочище]]></name><description/><Style><IconStyle><color>ffff981e</color><Icon><href>https://api-maps.yandex.ru/i/0.4/micro/pmbls.png</href></Icon><hotSpot x="7" y="28" xunits="pixels" yunits="insetPixels"/></IconStyle></Style><Point><coordinates>39.042032147006594,55.97808110960115</coordinates></Point></Placemark><Placemark><name><![CDATA[153 Осек, озерцо, боллотце]]></name><description><![CDATA[Название говорит о том, что озерцо зарастает режущей осокой]]></description><Style><IconStyle><color>ffff981e</color><Icon><href>https://api-maps.yandex.ru/i/0.4/micro/pmbls.png</href></Icon><hotSpot x="7" y="28" xunits="pixels" yunits="insetPixels"/></IconStyle></Style><Point><coordinates>39.042289639072145,55.97302771099588</coordinates></Point></Placemark><Placemark><name><![CDATA[156 Будило, покос]]></name><description><![CDATA[Будыль - срезанный, скошенный стебель. По кошеному как раз ногу на будылку напорешь (Даль т. 1 с. 335)]]></description><Style><IconStyle><color>ffff981e</color><Icon><href>https://api-maps.yandex.ru/i/0.4/micro/pmbls.png</href></Icon><hotSpot x="7" y="28" xunits="pixels" yunits="insetPixels"/></IconStyle></Style><Point><coordinates>39.049134636477746,55.966276779885085</coordinates></Point></Placemark><Placemark><name><![CDATA[155 Гарины гривы]]></name><description><![CDATA[Название возможно говорит о горевшем лесе — гари]]></description><Style><IconStyle><color>ffff981e</color><Icon><href>https://api-maps.yandex.ru/i/0.4/micro/pmbls.png</href></Icon><hotSpot x="7" y="28" xunits="pixels" yunits="insetPixels"/></IconStyle></Style><Point><coordinates>39.047332192019624,55.967973649171654</coordinates></Point></Placemark><Placemark><name><![CDATA[Старообрядческое кладбище]]></name><description><![CDATA[Примерное местоположение. Требует уточнения на местности]]></description><Style><IconStyle><color>ffff981e</color><Icon><href>https://api-maps.yandex.ru/i/0.4/micro/pmbls.png</href></Icon><hotSpot x="7" y="28" xunits="pixels" yunits="insetPixels"/></IconStyle></Style><Point><coordinates>38.95615261778099,55.98318798268154</coordinates></Point></Placemark><Placemark><name><![CDATA[107 Ксениха/Косениха]]></name><description><![CDATA[Покос от Браского бугра до Лачуг; сырое место]]></description><Style><IconStyle><color>ffff981e</color><Icon><href>https://api-maps.yandex.ru/i/0.4/micro/pmbls.png</href></Icon><hotSpot x="7" y="28" xunits="pixels" yunits="insetPixels"/></IconStyle></Style><Point><coordinates>38.99799507841304,55.982520338647056</coordinates></Point></Placemark><Placemark><name><![CDATA[106 Бык]]></name><description><![CDATA[Мокрый покос. Называют два варианта: сразу за д. лачуги, на горке; или же почти у моста через р. Киржач и Аргуновской церкви]]></description><Style><IconStyle><color>ffff981e</color><Icon><href>https://api-maps.yandex.ru/i/0.4/micro/pmbls.png</href></Icon><hotSpot x="7" y="28" xunits="pixels" yunits="insetPixels"/></IconStyle></Style><Point><coordinates>38.99462622388982,55.98724773022838</coordinates></Point></Placemark><Placemark><name><![CDATA[20 Мальцевский луг и Барские бугры]]></name><description><![CDATA[Место где косили барсковские, сокращенно барские. На правой стороне р. Киржач, напротив луга Еловцы]]></description><Style><IconStyle><color>ffff981e</color><Icon><href>https://api-maps.yandex.ru/i/0.4/micro/pmbls.png</href></Icon><hotSpot x="7" y="28" xunits="pixels" yunits="insetPixels"/></IconStyle></Style><Point><coordinates>38.99366062864377,55.98651399953588</coordinates></Point></Placemark><Placemark><name><![CDATA[64 Задний луг]]></name><description><![CDATA[Позади д. Плотавцево]]></description><Style><IconStyle><color>ffff981e</color><Icon><href>https://api-maps.yandex.ru/i/0.4/micro/pmbls.png</href></Icon><hotSpot x="7" y="28" xunits="pixels" yunits="insetPixels"/></IconStyle></Style><Point><coordinates>38.98709458097651,55.986947023231394</coordinates></Point></Placemark><Placemark><name><![CDATA[146 Дубровка, покос по болоту]]></name><description/><Style><IconStyle><color>ffff981e</color><Icon><href>https://api-maps.yandex.ru/i/0.4/micro/pmbls.png</href></Icon><hotSpot x="7" y="28" xunits="pixels" yunits="insetPixels"/></IconStyle></Style><Point><coordinates>39.021684348432366,55.98434881312993</coordinates></Point></Placemark><Placemark><name><![CDATA[151 Старица, озеро]]></name><description/><Style><IconStyle><color>ffff981e</color><Icon><href>https://api-maps.yandex.ru/i/0.4/micro/pmbls.png</href></Icon><hotSpot x="7" y="28" xunits="pixels" yunits="insetPixels"/></IconStyle></Style><Point><coordinates>39.02361553892273,55.97828564202314</coordinates></Point></Placemark><Placemark><name><![CDATA[4 Бобыло]]></name><description><![CDATA[Покос по болоту]]></description><Style><IconStyle><color>ffff981e</color><Icon><href>https://api-maps.yandex.ru/i/0.4/micro/pmbls.png</href></Icon><hotSpot x="7" y="28" xunits="pixels" yunits="insetPixels"/></IconStyle></Style><Point><coordinates>38.99871487988569,55.98856096028322</coordinates></Point></Placemark><Placemark><name><![CDATA[5 Еловцы, луг]]></name><description/><Style><IconStyle><color>ffff981e</color><Icon><href>https://api-maps.yandex.ru/i/0.4/micro/pmbls.png</href></Icon><hotSpot x="7" y="28" xunits="pixels" yunits="insetPixels"/></IconStyle></Style><Point><coordinates>39.00128883108245,55.98594264292681</coordinates></Point></Placemark><Placemark><name><![CDATA[91 Цепнинский омут на р. Киржач]]></name><description/><Style><IconStyle><color>ffff981e</color><Icon><href>https://api-maps.yandex.ru/i/0.4/micro/pmbls.png</href></Icon><hotSpot x="7" y="28" xunits="pixels" yunits="insetPixels"/></IconStyle></Style><Point><coordinates>39.00600951894786,55.97948872755908</coordinates></Point></Placemark><Placemark><name><![CDATA[94 Лачужский луг]]></name><description><![CDATA[От Цепнинского омута вниз по р. Киржач]]></description><Style><IconStyle><color>ffff981e</color><Icon><href>https://api-maps.yandex.ru/i/0.4/micro/pmbls.png</href></Icon><hotSpot x="7" y="28" xunits="pixels" yunits="insetPixels"/></IconStyle></Style><Point><coordinates>39.00782269224201,55.9757831020106</coordinates></Point></Placemark><Placemark><name><![CDATA[181 Гурьянов лес]]></name><description><![CDATA[За бывшим выгоном с. Санино, по левую сторону дороги на Родионово. Здесь была сторожка лесников Гурьяновых]]></description><Style><IconStyle><color>ffff981e</color><Icon><href>https://api-maps.yandex.ru/i/0.4/micro/pmbls.png</href></Icon><hotSpot x="7" y="28" xunits="pixels" yunits="insetPixels"/></IconStyle></Style><Point><coordinates>38.94145858188717,55.99331604790666</coordinates></Point></Placemark><Placemark><name><![CDATA[Каменица]]></name><description><![CDATA[Каменицы, места сбора камней с полей (вид местного промысла в Аргуновских деревнях); камни закупались подрядчиком по строительству дорог]]></description><Style><IconStyle><color>ffff981e</color><Icon><href>https://api-maps.yandex.ru/i/0.4/micro/pmbls.png</href></Icon><hotSpot x="7" y="28" xunits="pixels" yunits="insetPixels"/></IconStyle></Style><Point><coordinates>38.98147394831746,56.02475962860378</coordinates></Point></Placemark><Placemark><name><![CDATA[Горка Лимонка]]></name><description/><Style><IconStyle><color>ffff981e</color><Icon><href>https://api-maps.yandex.ru/i/0.4/micro/pmbls.png</href></Icon><hotSpot x="7" y="28" xunits="pixels" yunits="insetPixels"/></IconStyle></Style><Point><coordinates>39.01450899629298,55.9643451463048</coordinates></Point></Placemark><Placemark><name><![CDATA[140 Пансково болото]]></name><description><![CDATA[за д. Цепнино, между I-IV Березками и ур. Березовиком, по легенде место битвы поляков (панов) и русских в Смутное время, предположительно в 1608 г.]]></description><Style><IconStyle><color>ffff981e</color><Icon><href>https://api-maps.yandex.ru/i/0.4/micro/pmbls.png</href></Icon><hotSpot x="7" y="28" xunits="pixels" yunits="insetPixels"/></IconStyle></Style><Point><coordinates>39.0363894384541,55.98361431713359</coordinates></Point></Placemark><Placemark><name><![CDATA[158 Березовик, лес]]></name><description><![CDATA[Лес, покос в сторону д. Гостец]]></description><Style><IconStyle><color>ffff981e</color><Icon><href>https://api-maps.yandex.ru/i/0.4/micro/pmbls.png</href></Icon><hotSpot x="7" y="28" xunits="pixels" yunits="insetPixels"/></IconStyle></Style><Point><coordinates>39.03334244901303,55.979066941284536</coordinates></Point></Placemark><Placemark><name><![CDATA[160 Ездовой брод]]></name><description><![CDATA[На лошадях переезжали брод от Цепнино в Ветчи]]></description><Style><IconStyle><color>ffff981e</color><Icon><href>https://api-maps.yandex.ru/i/0.4/micro/pmbls.png</href></Icon><hotSpot x="7" y="28" xunits="pixels" yunits="insetPixels"/></IconStyle></Style><Point><coordinates>39.02769477220527,55.964601345838</coordinates></Point></Placemark><Placemark><name><![CDATA[148 Подзабелово]]></name><description/><Style><IconStyle><color>ffff981e</color><Icon><href>https://api-maps.yandex.ru/i/0.4/micro/pmbls.png</href></Icon><hotSpot x="7" y="28" xunits="pixels" yunits="insetPixels"/></IconStyle></Style><Point><coordinates>39.04730708452174,56.00181463406626</coordinates></Point></Placemark><Placemark><name><![CDATA[30 Подорешнеы полосы]]></name><description/><Style><IconStyle><color>ffff981e</color><Icon><href>https://api-maps.yandex.ru/i/0.4/micro/pmbls.png</href></Icon><hotSpot x="7" y="28" xunits="pixels" yunits="insetPixels"/></IconStyle></Style><Point><coordinates>39.03494746537948,56.013079188869426</coordinates></Point></Placemark><Placemark><name><![CDATA[1 Протомойка, ручей]]></name><description/><Style><IconStyle><color>ffff981e</color><Icon><href>https://api-maps.yandex.ru/i/0.4/micro/pmbls.png</href></Icon><hotSpot x="7" y="28" xunits="pixels" yunits="insetPixels"/></IconStyle></Style><Point><coordinates>39.05057402653317,56.01376432741446</coordinates></Point></Placemark><Placemark><name><![CDATA[16 Митрошино, лес]]></name><description/><Style><IconStyle><color>ffff981e</color><Icon><href>https://api-maps.yandex.ru/i/0.4/micro/pmbls.png</href></Icon><hotSpot x="7" y="28" xunits="pixels" yunits="insetPixels"/></IconStyle></Style><Point><coordinates>39.05675383610345,56.02214132989886</coordinates></Point></Placemark><Placemark><name><![CDATA[17 Болотце, лес]]></name><description><![CDATA[Тот же что и 18, лес со стороны д. Вороново]]></description><Style><IconStyle><color>ffff981e</color><Icon><href>https://api-maps.yandex.ru/i/0.4/micro/pmbls.png</href></Icon><hotSpot x="7" y="28" xunits="pixels" yunits="insetPixels"/></IconStyle></Style><Point><coordinates>39.0407034973573,56.02223746799251</coordinates></Point></Placemark><Placemark><name><![CDATA[18 Борок, лес]]></name><description><![CDATA[Тот же что и 17 - лес со стороны д. Вороново]]></description><Style><IconStyle><color>ffff981e</color><Icon><href>https://api-maps.yandex.ru/i/0.4/micro/pmbls.png</href></Icon><hotSpot x="7" y="28" xunits="pixels" yunits="insetPixels"/></IconStyle></Style><Point><coordinates>39.041990957685236,56.027428598389754</coordinates></Point></Placemark><Placemark><name><![CDATA[15 Мухановский лес]]></name><description><![CDATA[По владельцу — помещику Муханову]]></description><Style><IconStyle><color>ffff981e</color><Icon><href>https://api-maps.yandex.ru/i/0.4/micro/pmbls.png</href></Icon><hotSpot x="7" y="28" xunits="pixels" yunits="insetPixels"/></IconStyle></Style><Point><coordinates>39.017357550092626,56.032907363909246</coordinates></Point></Placemark><Placemark><name><![CDATA[187 Лошадиное кладбище]]></name><description><![CDATA[Лошадиное кладбище у Старого Сельца]]></description><Style><IconStyle><color>ffff981e</color><Icon><href>https://api-maps.yandex.ru/i/0.4/micro/pmbls.png</href></Icon><hotSpot x="7" y="28" xunits="pixels" yunits="insetPixels"/></IconStyle></Style><Point><coordinates>39.03194876713341,56.031417601745225</coordinates></Point></Placemark><Placemark><name><![CDATA[176 Чистые пруды, дволь болота Шубары]]></name><description/><Style><IconStyle><color>ffff981e</color><Icon><href>https://api-maps.yandex.ru/i/0.4/micro/pmbls.png</href></Icon><hotSpot x="7" y="28" xunits="pixels" yunits="insetPixels"/></IconStyle></Style><Point><coordinates>39.037613592572846,56.041220140147516</coordinates></Point></Placemark><Placemark><name><![CDATA[22 Долгие полосы, луга]]></name><description/><Style><IconStyle><color>ffff981e</color><Icon><href>https://api-maps.yandex.ru/i/0.4/micro/pmbls.png</href></Icon><hotSpot x="7" y="28" xunits="pixels" yunits="insetPixels"/></IconStyle></Style><Point><coordinates>39.03173419041169,56.01680525752976</coordinates></Point></Placemark><Placemark><name><![CDATA[149 Минина гора]]></name><description/><Style><IconStyle><color>ffff981e</color><Icon><href>https://api-maps.yandex.ru/i/0.4/micro/pmbls.png</href></Icon><hotSpot x="7" y="28" xunits="pixels" yunits="insetPixels"/></IconStyle></Style><Point><coordinates>39.079220018810595,55.9900296051663</coordinates></Point></Placemark><Placemark><name><![CDATA[Митинское болото]]></name><description/><Style><IconStyle><color>ff40db56</color><Icon><href>https://api-maps.yandex.ru/i/0.4/micro/pmgns.png</href></Icon><hotSpot x="7" y="28" xunits="pixels" yunits="insetPixels"/></IconStyle></Style><Point><coordinates>38.972102026841725,55.95647720107803</coordinates></Point></Placemark><Placemark><name><![CDATA[Высоково]]></name><description><![CDATA[Высоково - потому что место высокое. Когда-то там был строевой сосновый лес, который свели где-то в 1960-70-ые. Брали песок для узкоколейки. Место указано примерно.]]></description><Style><IconStyle><color>ff40db56</color><Icon><href>https://api-maps.yandex.ru/i/0.4/micro/pmgns.png</href></Icon><hotSpot x="7" y="28" xunits="pixels" yunits="insetPixels"/></IconStyle></Style><Point><coordinates>38.9631510620863,55.94638263529327</coordinates></Point></Placemark><Placemark><name><![CDATA[Егорово]]></name><description><![CDATA[Место указано примерно]]></description><Style><IconStyle><color>ff40db56</color><Icon><href>https://api-maps.yandex.ru/i/0.4/micro/pmgns.png</href></Icon><hotSpot x="7" y="28" xunits="pixels" yunits="insetPixels"/></IconStyle></Style><Point><coordinates>38.97891172225729,55.95451548082793</coordinates></Point></Placemark><Placemark><name><![CDATA[Заскотный лес]]></name><description><![CDATA[Потому, что за скотным двором. Семейное название.]]></description><Style><IconStyle><color>ff40db56</color><Icon><href>https://api-maps.yandex.ru/i/0.4/micro/pmgns.png</href></Icon><hotSpot x="7" y="28" xunits="pixels" yunits="insetPixels"/></IconStyle></Style><Point><coordinates>38.97326835448991,55.97483106697313</coordinates></Point></Placemark><Placemark><name><![CDATA[Камушки]]></name><description><![CDATA[Часть дороги, которая была замощена мелким камнем, чтобы её не размывало. Из маленького болотца вытекала вода.]]></description><Style><IconStyle><color>ff40db56</color><Icon><href>https://api-maps.yandex.ru/i/0.4/micro/pmgns.png</href></Icon><hotSpot x="7" y="28" xunits="pixels" yunits="insetPixels"/></IconStyle></Style><Point><coordinates>38.990595424725726,55.95982615307724</coordinates></Point></Placemark><Placemark><name/><description><![CDATA[Вероятно, ошибка. Камушками называли более дальнюю часть дороги. Здесь вообще не было дороги, так как она шла через поле, где сейчас дачные посёлки.]]></description><Style><IconStyle><color>ff4345ed</color><Icon><href>https://api-maps.yandex.ru/i/0.4/micro/pmrds.png</href></Icon><hotSpot x="7" y="28" xunits="pixels" yunits="insetPixels"/></IconStyle></Style><Point><coordinates>38.98410716112133,55.96550654541152</coordinates></Point></Placemark><Placemark><name><![CDATA[Заречная грива]]></name><description><![CDATA[За рекой Лачужкой]]></description><Style><IconStyle><color>ff40db56</color><Icon><href>https://api-maps.yandex.ru/i/0.4/micro/pmgns.png</href></Icon><hotSpot x="7" y="28" xunits="pixels" yunits="insetPixels"/></IconStyle></Style><Point><coordinates>38.99574258382595,55.970536862225686</coordinates></Point></Placemark><Placemark><name/><description><![CDATA[Вероятно, не совсем точно локализирован. В целом - лес верно указан. Но это название в первую очередь для той части леса, которая находится за рекой Лачужкой.]]></description><Style><IconStyle><color>ff4345ed</color><Icon><href>https://api-maps.yandex.ru/i/0.4/micro/pmrds.png</href></Icon><hotSpot x="7" y="28" xunits="pixels" yunits="insetPixels"/></IconStyle></Style><Point><coordinates>38.992073321895234,55.966336954018885</coordinates></Point></Placemark><Placemark><name><![CDATA[Филипповка (старица Киржача)]]></name><description><![CDATA[Вероятно, часть старого русла. Топоним связан с деревенской фамилией Филлиповых.]]></description><Style><IconStyle><color>ff40db56</color><Icon><href>https://api-maps.yandex.ru/i/0.4/micro/pmgns.png</href></Icon><hotSpot x="7" y="28" xunits="pixels" yunits="insetPixels"/></IconStyle></Style><Point><coordinates>39.00097825582465,55.97176425781124</coordinates></Point></Placemark><Placemark><name><![CDATA[Ерёмин омут]]></name><description><![CDATA[Топоним связан с деревенской фамилией Ерёминых.]]></description><Style><IconStyle><color>ff40db56</color><Icon><href>https://api-maps.yandex.ru/i/0.4/micro/pmgns.png</href></Icon><hotSpot x="7" y="28" xunits="pixels" yunits="insetPixels"/></IconStyle></Style><Point><coordinates>39.00462337787384,55.97414372565747</coordinates></Point></Placemark><Placemark><name><![CDATA[Железы]]></name><description><![CDATA[Раньше пляж был на левом берегу Киржача на протяжении всего изгиба. Железы - потому что на дне много железистых отложений (кусочков). Заросли в 1970-90 гг.]]></description><Style><IconStyle><color>ff40db56</color><Icon><href>https://api-maps.yandex.ru/i/0.4/micro/pmgns.png</href></Icon><hotSpot x="7" y="28" xunits="pixels" yunits="insetPixels"/></IconStyle></Style><Point><coordinates>38.99859108979791,55.97609742677778</coordinates></Point></Placemark><Placemark><name><![CDATA[Коровий рог]]></name><description><![CDATA[Пляж находился на правом берегу реки. Назван так из-за изгиба реки, а также из-за удобства для водопоя стада. Зарос 1970-2000 гг.]]></description><Style><IconStyle><color>ff40db56</color><Icon><href>https://api-maps.yandex.ru/i/0.4/micro/pmgns.png</href></Icon><hotSpot x="7" y="28" xunits="pixels" yunits="insetPixels"/></IconStyle></Style><Point><coordinates>39.00288798864314,55.976822333925305</coordinates></Point></Placemark><Placemark><name><![CDATA[Бык]]></name><description><![CDATA[Вероятно, место так названо из-за того, что в эту высокую часть берега при разливе вода упиралась как в опору моста (бык).]]></description><Style><IconStyle><color>ff40db56</color><Icon><href>https://api-maps.yandex.ru/i/0.4/micro/pmgns.png</href></Icon><hotSpot x="7" y="28" xunits="pixels" yunits="insetPixels"/></IconStyle></Style><Point><coordinates>38.994950771180896,55.98695754778068</coordinates></Point></Placemark><Placemark><name><![CDATA[Старый мост]]></name><description><![CDATA[Между частями вала. Вал видно даже со спутника. Возможно, даже старые опоры ещё сохранились.]]></description><Style><IconStyle><color>ff40db56</color><Icon><href>https://api-maps.yandex.ru/i/0.4/micro/pmgns.png</href></Icon><hotSpot x="7" y="28" xunits="pixels" yunits="insetPixels"/></IconStyle></Style><Point><coordinates>38.99237316831746,55.99234686556814</coordinates></Point></Placemark><Placemark><name><![CDATA[Барсковский/Аргуновский пляж]]></name><description/><Style><IconStyle><color>ff40db56</color><Icon><href>https://api-maps.yandex.ru/i/0.4/micro/pmgns.png</href></Icon><hotSpot x="7" y="28" xunits="pixels" yunits="insetPixels"/></IconStyle></Style><Point><coordinates>38.993998586980446,55.99143583557046</coordinates></Point></Placemark><Placemark><name><![CDATA[Ерёмин пляж]]></name><description><![CDATA[Правый берег на изгибе. Зарос в 1970-90 гг.]]></description><Style><IconStyle><color>ff40db56</color><Icon><href>https://api-maps.yandex.ru/i/0.4/micro/pmgns.png</href></Icon><hotSpot x="7" y="28" xunits="pixels" yunits="insetPixels"/></IconStyle></Style><Point><coordinates>39.0056774860185,55.97592033485745</coordinates></Point></Placemark><Placemark><name><![CDATA[Цепнинский пляж]]></name><description><![CDATA[Правый берег. Зарос в 1970-90 гг.]]></description><Style><IconStyle><color>ff40db56</color><Icon><href>https://api-maps.yandex.ru/i/0.4/micro/pmgns.png</href></Icon><hotSpot x="7" y="28" xunits="pixels" yunits="insetPixels"/></IconStyle></Style><Point><coordinates>39.006315851762416,55.98062447537027</coordinates></Point></Placemark><Placemark><name><![CDATA[Большак]]></name><description><![CDATA[(большая дорога)]]></description><Style><IconStyle><color>ff40db56</color><Icon><href>https://api-maps.yandex.ru/i/0.4/micro/pmgns.png</href></Icon><hotSpot x="7" y="28" xunits="pixels" yunits="insetPixels"/></IconStyle></Style><Point><coordinates>39.051197255207924,55.898289845417935</coordinates></Point></Placemark><Placemark><name><![CDATA[просёлочная дорога Доньшино]]></name><description><![CDATA[Не знаем, почему так называлась, до того, как появилось бетонное основание. Оно появилось примерно в конце 1960-х гг. После этого стали называть "бетонка". Так называли, пока не положили асфальт где-то в конце 2000-х - начале 2010-х гг.]]></description><Style><IconStyle><color>ff40db56</color><Icon><href>https://api-maps.yandex.ru/i/0.4/micro/pmgns.png</href></Icon><hotSpot x="7" y="28" xunits="pixels" yunits="insetPixels"/></IconStyle></Style><Point><coordinates>39.05059644038843,55.90026698287341</coordinates></Point></Placemark></Folder></Document></kml>